{
"type": "FeatureCollection",
"name": "SchoolCrossings_GDA2020",
"features": [
{ "type": "Feature", "properties": { "site_type": "SC", "site_no": "399", "site_desc": "Lynton Tce - Approx. 130m East of Grand Bvd, Seaford, Seaford Secondary College", "road_no": null, "rrd_ul": null, "rrd_r": null, "suburb": null, "school_name": null, "resp": "LGA" }, "geometry": { "type": "Point", "coordinates": [ 138.482364103, -35.188337406999949 ] } },
{ "type": "Feature", "properties": { "site_type": "SC", "site_no": "3210", "site_desc": "East Tce near Wakefield St, Adelaide, Christian Brothers Junior College", "road_no": null, "rrd_ul": null, "rrd_r": null, "suburb": null, "school_name": null, "resp": "LGA" }, "geometry": { "type": "Point", "coordinates": [ 138.61376370500011, -34.927527479999981 ] } },
{ "type": "Feature", "properties": { "site_type": "SC", "site_no": "295", "site_desc": "East Terrace \/N of MacDonnell Street, Kingston S.E., Kingston Area School", "road_no": null, "rrd_ul": null, "rrd_r": null, "suburb": null, "school_name": null, "resp": "SAG" }, "geometry": { "type": "Point", "coordinates": [ 139.856145241000036, -36.835259144999952 ] } },
{ "type": "Feature", "properties": { "site_type": "SC", "site_no": "421", "site_desc": "Gawler Rd West of Rowe Crs, Two Wells Primary School", "road_no": null, "rrd_ul": null, "rrd_r": null, "suburb": null, "school_name": null, "resp": "SAG" }, "geometry": { "type": "Point", "coordinates": [ 138.517312096000069, -34.592695552999942 ] } },
{ "type": "Feature", "properties": { "site_type": "SC", "site_no": "416", "site_desc": "Hamilton Rd for Fairview Park Primary School", "road_no": null, "rrd_ul": null, "rrd_r": null, "suburb": null, "school_name": null, "resp": "LGA" }, "geometry": { "type": "Point", "coordinates": [ 138.72922621400005, -34.797455510999953 ] } },
{ "type": "Feature", "properties": { "site_type": "SC", "site_no": "299", "site_desc": "Gledsdale Road \/E of Sandison Road, Hallett Cove, Hallett Cove Primary", "road_no": null, "rrd_ul": null, "rrd_r": null, "suburb": null, "school_name": null, "resp": "LGA" }, "geometry": { "type": "Point", "coordinates": [ 138.511041286000022, -35.077548591999971 ] } },
{ "type": "Feature", "properties": { "site_type": "SC", "site_no": "365", "site_desc": "Kangarilla Rd RN4621 \/ Rose Cres, McLaren Flat, McLaren Flat Primary", "road_no": null, "rrd_ul": null, "rrd_r": null, "suburb": null, "school_name": null, "resp": "SAG" }, "geometry": { "type": "Point", "coordinates": [ 138.587283319000107, -35.206683977999944 ] } },
{ "type": "Feature", "properties": { "site_type": "SC", "site_no": "431", "site_desc": "Dunrobin Rd, Warradale,Christ The King School", "road_no": null, "rrd_ul": null, "rrd_r": null, "suburb": null, "school_name": null, "resp": "LGA" }, "geometry": { "type": "Point", "coordinates": [ 138.537863365000021, -35.009162183999933 ] } },
{ "type": "Feature", "properties": { "site_type": "SC", "site_no": "398", "site_desc": "Adams Rd - 231m SW of Craigmore Rd, Playford Primary School", "road_no": null, "rrd_ul": null, "rrd_r": null, "suburb": null, "school_name": null, "resp": "LGA" }, "geometry": { "type": "Point", "coordinates": [ 138.711912823000034, -34.688354672999935 ] } },
{ "type": "Feature", "properties": { "site_type": "SC", "site_no": "409", "site_desc": "Edward Beck Dr, Woodend Primary School", "road_no": null, "rrd_ul": null, "rrd_r": null, "suburb": null, "school_name": null, "resp": "LGA" }, "geometry": { "type": "Point", "coordinates": [ 138.53557149400001, -35.078919714999984 ] } },
{ "type": "Feature", "properties": { "site_type": "SC", "site_no": "317", "site_desc": "Blanche Terrace \/SW of Robert Street, Moonta, Moonta Area School", "road_no": null, "rrd_ul": null, "rrd_r": null, "suburb": null, "school_name": null, "resp": "SAG" }, "geometry": { "type": "Point", "coordinates": [ 137.591364554000052, -34.070051412999931 ] } },
{ "type": "Feature", "properties": { "site_type": "SC", "site_no": "414", "site_desc": "Somerset Grove, Playford Primary School", "road_no": null, "rrd_ul": null, "rrd_r": null, "suburb": null, "school_name": null, "resp": "LGA" }, "geometry": { "type": "Point", "coordinates": [ 138.714634558000057, -34.689748147999978 ] } },
{ "type": "Feature", "properties": { "site_type": "SC", "site_no": "401", "site_desc": "Dumas St - 136m NE of Apollo St, Mt Barker Primary School", "road_no": null, "rrd_ul": null, "rrd_r": null, "suburb": null, "school_name": null, "resp": "LGA" }, "geometry": { "type": "Point", "coordinates": [ 138.854542616000117, -35.068267922999951 ] } },
{ "type": "Feature", "properties": { "site_type": "SC", "site_no": "419", "site_desc": "Richardson Drive East of Sunnybrook Dr, Wynn Vale School", "road_no": null, "rrd_ul": null, "rrd_r": null, "suburb": null, "school_name": null, "resp": "LGA" }, "geometry": { "type": "Point", "coordinates": [ 138.688857379000069, -34.801222548999931 ] } },
{ "type": "Feature", "properties": { "site_type": "SC", "site_no": "397", "site_desc": "Adams Rd - 192m NE of Zurich Rd, Playford Primary School", "road_no": null, "rrd_ul": null, "rrd_r": null, "suburb": null, "school_name": null, "resp": "LGA" }, "geometry": { "type": "Point", "coordinates": [ 138.711298183000054, -34.689317341999981 ] } },
{ "type": "Feature", "properties": { "site_type": "SC", "site_no": "410", "site_desc": "Caffery St, McLaren Vale, McLaren Vale Primary School", "road_no": null, "rrd_ul": null, "rrd_r": null, "suburb": null, "school_name": null, "resp": "LGA" }, "geometry": { "type": "Point", "coordinates": [ 138.53036251900005, -35.212107529999969 ] } },
{ "type": "Feature", "properties": { "site_type": "SC", "site_no": "411", "site_desc": "Liguria Crs. Noarlunga Downs, Noarlunga Downs Primary School", "road_no": null, "rrd_ul": null, "rrd_r": null, "suburb": null, "school_name": null, "resp": "LGA" }, "geometry": { "type": "Point", "coordinates": [ 138.498124908000023, -35.15151100199995 ] } },
{ "type": "Feature", "properties": { "site_type": "SC", "site_no": "296", "site_desc": "Quinliven Road \/W of Holden Street, Aldinga, Aldinga Primary", "road_no": null, "rrd_ul": null, "rrd_r": null, "suburb": null, "school_name": null, "resp": "LGA" }, "geometry": { "type": "Point", "coordinates": [ 138.462181201000021, -35.268383451999966 ] } },
{ "type": "Feature", "properties": { "site_type": "SC", "site_no": "308", "site_desc": "Melsetter road \/N of Melfort Road, Hackham West, Hackham South Primary", "road_no": null, "rrd_ul": null, "rrd_r": null, "suburb": null, "school_name": null, "resp": "LGA" }, "geometry": { "type": "Point", "coordinates": [ 138.516295668000112, -35.153054678999979 ] } },
{ "type": "Feature", "properties": { "site_type": "SC", "site_no": "389", "site_desc": "Cadell St \/ Glendale Gr, Goolwa, Investigator College", "road_no": null, "rrd_ul": null, "rrd_r": null, "suburb": null, "school_name": null, "resp": "SAG" }, "geometry": { "type": "Point", "coordinates": [ 138.778443508, -35.496193887999937 ] } },
{ "type": "Feature", "properties": { "site_type": "SC", "site_no": "294", "site_desc": "Hub Drive \/S of Maralyn Close, Aberfoyle Park, Aberfoyle Hub", "road_no": null, "rrd_ul": null, "rrd_r": null, "suburb": null, "school_name": null, "resp": "LGA" }, "geometry": { "type": "Point", "coordinates": [ 138.590643760000034, -35.079563330999974 ] } },
{ "type": "Feature", "properties": { "site_type": "SC", "site_no": "393", "site_desc": "Bains Rd (Approx 50m West of Emmerson Rd), Morphett Vale, Woodcroft College", "road_no": null, "rrd_ul": null, "rrd_r": null, "suburb": null, "school_name": null, "resp": "LGA" }, "geometry": { "type": "Point", "coordinates": [ 138.543759204000025, -35.114713593999966 ] } },
{ "type": "Feature", "properties": { "site_type": "SC", "site_no": "318", "site_desc": "Education Road \/N of Devon Crescent, Happy Valley, Happy Valley Primary", "road_no": null, "rrd_ul": null, "rrd_r": null, "suburb": null, "school_name": null, "resp": "LGA" }, "geometry": { "type": "Point", "coordinates": [ 138.584552190000068, -35.087010850999945 ] } },
{ "type": "Feature", "properties": { "site_type": "SC", "site_no": "396", "site_desc": "Mildred St - 108m NW of High St", "road_no": null, "rrd_ul": null, "rrd_r": null, "suburb": null, "school_name": null, "resp": "SAG" }, "geometry": { "type": "Point", "coordinates": [ 138.917264319000083, -34.337536482999951 ] } },
{ "type": "Feature", "properties": { "site_type": "SC", "site_no": "402", "site_desc": "Quinliven Rd - 63m East of Bowering Hill Rd, Aldinga Payinthi College", "road_no": null, "rrd_ul": null, "rrd_r": null, "suburb": null, "school_name": null, "resp": "LGA" }, "geometry": { "type": "Point", "coordinates": [ 138.471964705000119, -35.267876305999948 ] } },
{ "type": "Feature", "properties": { "site_type": "SC", "site_no": "406", "site_desc": "Park Lake Bvd, Blakeview Primary School", "road_no": null, "rrd_ul": null, "rrd_r": null, "suburb": null, "school_name": null, "resp": "LGA" }, "geometry": { "type": "Point", "coordinates": [ 138.698682097000074, -34.686843372999931 ] } },
{ "type": "Feature", "properties": { "site_type": "SC", "site_no": "405", "site_desc": "Lincoln Hwy, East of Cooper St, Cowell  Area School", "road_no": null, "rrd_ul": null, "rrd_r": null, "suburb": null, "school_name": null, "resp": "SAG" }, "geometry": { "type": "Point", "coordinates": [ 136.919516153000018, -33.681982683999934 ] } },
{ "type": "Feature", "properties": { "site_type": "SC", "site_no": "407", "site_desc": "Fosters Rd, Cedar College at Northgate", "road_no": null, "rrd_ul": null, "rrd_r": null, "suburb": null, "school_name": null, "resp": "SAG" }, "geometry": { "type": "Point", "coordinates": [ 138.635868572000049, -34.855115943999976 ] } },
{ "type": "Feature", "properties": { "site_type": "SC", "site_no": "395", "site_desc": "Douglas Drive \/ Roberts st, Munno Para West, Mark Oliphant", "road_no": null, "rrd_ul": null, "rrd_r": null, "suburb": null, "school_name": null, "resp": "LGA" }, "geometry": { "type": "Point", "coordinates": [ 138.685730482000054, -34.665862037999943 ] } },
{ "type": "Feature", "properties": { "site_type": "SC", "site_no": "391", "site_desc": "Newton Bvd \/ Faulding Av, Munno Para West, Mark Oliphant", "road_no": null, "rrd_ul": null, "rrd_r": null, "suburb": null, "school_name": null, "resp": "LGA" }, "geometry": { "type": "Point", "coordinates": [ 138.684156214000041, -34.666717180999967 ] } },
{ "type": "Feature", "properties": { "site_type": "SC", "site_no": "384", "site_desc": "Wells Rd - 200m West of Fleming Ave, Streaky Bay, Streaky Bay Area School", "road_no": null, "rrd_ul": null, "rrd_r": null, "suburb": null, "school_name": null, "resp": "LGA" }, "geometry": { "type": "Point", "coordinates": [ 134.201655447, -32.797371877999979 ] } },
{ "type": "Feature", "properties": { "site_type": "SC", "site_no": "386", "site_desc": "Brunel Dr\/Roebling St, Modbury Heights, The Heights School", "road_no": null, "rrd_ul": null, "rrd_r": null, "suburb": null, "school_name": null, "resp": "LGA" }, "geometry": { "type": "Point", "coordinates": [ 138.684118672000068, -34.810204370999941 ] } },
{ "type": "Feature", "properties": { "site_type": "SC", "site_no": "390", "site_desc": "Garned Tce \/ 15m South of Station Lane, Mawson Lakes, Mawson Lakes Primary School", "road_no": null, "rrd_ul": null, "rrd_r": null, "suburb": null, "school_name": null, "resp": "LGA" }, "geometry": { "type": "Point", "coordinates": [ 138.614925791000019, -34.808805173999929 ] } },
{ "type": "Feature", "properties": { "site_type": "SC", "site_no": "349", "site_desc": "Coalville Tce\/240m S of South Tce, Bordertown, Bordertown High School", "road_no": null, "rrd_ul": null, "rrd_r": null, "suburb": null, "school_name": null, "resp": "SAG" }, "geometry": { "type": "Point", "coordinates": [ 140.771334638000098, -36.314826508999943 ] } },
{ "type": "Feature", "properties": { "site_type": "SC", "site_no": "404", "site_desc": "Investigator Dr - Woodcroft Primary School", "road_no": null, "rrd_ul": null, "rrd_r": null, "suburb": null, "school_name": null, "resp": "LGA" }, "geometry": { "type": "Point", "coordinates": [ 138.556843603000061, -35.106943864999948 ] } },
{ "type": "Feature", "properties": { "site_type": "SC", "site_no": "392", "site_desc": "Davoren Rd-100m West of Peachey Rd, Davoren Park, Smithfield Plains Super School", "road_no": null, "rrd_ul": null, "rrd_r": null, "suburb": null, "school_name": null, "resp": "LGA" }, "geometry": { "type": "Point", "coordinates": [ 138.672058009000011, -34.680705199999977 ] } },
{ "type": "Feature", "properties": { "site_type": "SC", "site_no": "388", "site_desc": "Albert St\/Wellbourne St, Mitcham, Scotch Junior College", "road_no": null, "rrd_ul": null, "rrd_r": null, "suburb": null, "school_name": null, "resp": "LGA" }, "geometry": { "type": "Point", "coordinates": [ 138.621710113000063, -34.979133820999948 ] } },
{ "type": "Feature", "properties": { "site_type": "SC", "site_no": "415", "site_desc": "Fradd Rd - 110m east of Heaslip Rd, Angle Vale Primary School", "road_no": null, "rrd_ul": null, "rrd_r": null, "suburb": null, "school_name": null, "resp": "LGA" }, "geometry": { "type": "Point", "coordinates": [ 138.64746961100002, -34.644058223999934 ] } },
{ "type": "Feature", "properties": { "site_type": "SC", "site_no": "001", "site_desc": "Main Road at Primary School, Coromandel Valley, Coromandel Valley Primary", "road_no": null, "rrd_ul": null, "rrd_r": null, "suburb": null, "school_name": null, "resp": "SAG" }, "geometry": { "type": "Point", "coordinates": [ 138.62518230000012, -35.032509243999982 ] } },
{ "type": "Feature", "properties": { "site_type": "SC", "site_no": "244", "site_desc": "Goodman Road \/N of Chivell Street, Elizabeth South, Elizabeth South Primary", "road_no": null, "rrd_ul": null, "rrd_r": null, "suburb": null, "school_name": null, "resp": "LGA" }, "geometry": { "type": "Point", "coordinates": [ 138.660286417000066, -34.730518042999961 ] } },
{ "type": "Feature", "properties": { "site_type": "SC", "site_no": "226", "site_desc": "Collins Parade \/S of Paramount Avenue, Hackham, Hackham East Primary", "road_no": null, "rrd_ul": null, "rrd_r": null, "suburb": null, "school_name": null, "resp": "LGA" }, "geometry": { "type": "Point", "coordinates": [ 138.533067829000061, -35.139865887999974 ] } },
{ "type": "Feature", "properties": { "site_type": "SC", "site_no": "345", "site_desc": "Hart Rd\/38m E of Freer St, Semaphore South, Le Fevre High School", "road_no": null, "rrd_ul": null, "rrd_r": null, "suburb": null, "school_name": null, "resp": "SAG" }, "geometry": { "type": "Point", "coordinates": [ 138.48553224300008, -34.844962905999978 ] } },
{ "type": "Feature", "properties": { "site_type": "SC", "site_no": "087", "site_desc": "Thomas Street \/E of Marion Road, South Plympton, Forbes Primary", "road_no": null, "rrd_ul": null, "rrd_r": null, "suburb": null, "school_name": null, "resp": "LGA" }, "geometry": { "type": "Point", "coordinates": [ 138.557569389000037, -34.977139501999943 ] } },
{ "type": "Feature", "properties": { "site_type": "SC", "site_no": "385", "site_desc": "Lawrie Tce-60m east of Cates St, Waikerie, Waikerie PS", "road_no": null, "rrd_ul": null, "rrd_r": null, "suburb": null, "school_name": null, "resp": "SAG" }, "geometry": { "type": "Point", "coordinates": [ 139.982004438000104, -34.182107473999963 ] } },
{ "type": "Feature", "properties": { "site_type": "SC", "site_no": "057", "site_desc": "Fairfield Road \/SE of Murphy Street, Elizabeth Grove, St Mary Magdalene", "road_no": null, "rrd_ul": null, "rrd_r": null, "suburb": null, "school_name": null, "resp": "LGA" }, "geometry": { "type": "Point", "coordinates": [ 138.665971740000032, -34.734495840999955 ] } },
{ "type": "Feature", "properties": { "site_type": "SC", "site_no": "058", "site_desc": "John Rice Service Road \/E of Wincklebury Road, Elizabeth Vale, Elizabeth Vale Primary", "road_no": null, "rrd_ul": null, "rrd_r": null, "suburb": null, "school_name": null, "resp": "SAG" }, "geometry": { "type": "Point", "coordinates": [ 138.669706894000115, -34.748034398999948 ] } },
{ "type": "Feature", "properties": { "site_type": "SC", "site_no": "089", "site_desc": "Mount Gambier Road \/NW of Bridges Street, Millicent, Millicent South Primary", "road_no": null, "rrd_ul": null, "rrd_r": null, "suburb": null, "school_name": null, "resp": "SAG" }, "geometry": { "type": "Point", "coordinates": [ 140.36372296400009, -37.606892594999977 ] } },
{ "type": "Feature", "properties": { "site_type": "SC", "site_no": "093", "site_desc": "Edward Street \/W of Maria Street, Melrose Park, Edwardstown Primary", "road_no": null, "rrd_ul": null, "rrd_r": null, "suburb": null, "school_name": null, "resp": "LGA" }, "geometry": { "type": "Point", "coordinates": [ 138.578578217000086, -34.977883303999931 ] } },
{ "type": "Feature", "properties": { "site_type": "SC", "site_no": "432", "site_desc": "Grand Bvd \/ Seaford Rise Primary School", "road_no": null, "rrd_ul": null, "rrd_r": null, "suburb": null, "school_name": null, "resp": "LGA" }, "geometry": { "type": "Point", "coordinates": [ 138.486488333000011, -35.199671690999935 ] } },
{ "type": "Feature", "properties": { "site_type": "SC", "site_no": "432", "site_desc": "Grand Bvd \/ Seaford Rise Primary School", "road_no": null, "rrd_ul": null, "rrd_r": null, "suburb": null, "school_name": null, "resp": "LGA" }, "geometry": { "type": "Point", "coordinates": [ 138.486574015000087, -35.19963975099995 ] } },
{ "type": "Feature", "properties": { "site_type": "SC", "site_no": "430", "site_desc": "Young St \/ Woodend Primary School", "road_no": null, "rrd_ul": null, "rrd_r": null, "suburb": null, "school_name": null, "resp": "LGA" }, "geometry": { "type": "Point", "coordinates": [ 138.536747041000012, -35.079185989999928 ] } },
{ "type": "Feature", "properties": { "site_type": "SC", "site_no": "371", "site_desc": "Ridge Tce\/54m W of George St, Millicent, Millicent Nth Kindergarden", "road_no": null, "rrd_ul": null, "rrd_r": null, "suburb": null, "school_name": null, "resp": "SAG" }, "geometry": { "type": "Point", "coordinates": [ 140.348325292000027, -37.593421607999971 ] } },
{ "type": "Feature", "properties": { "site_type": "SC", "site_no": "251", "site_desc": "Shipsters Road \/S of Regent Street, Kensington, Marryatville Primary", "road_no": null, "rrd_ul": null, "rrd_r": null, "suburb": null, "school_name": null, "resp": "LGA" }, "geometry": { "type": "Point", "coordinates": [ 138.650103467, -34.924907384999983 ] } },
{ "type": "Feature", "properties": { "site_type": "SC", "site_no": "027", "site_desc": "The Parade \/W of Yeronga Avenue, Kensington Park, Pembroke College", "road_no": null, "rrd_ul": null, "rrd_r": null, "suburb": null, "school_name": null, "resp": "LGA" }, "geometry": { "type": "Point", "coordinates": [ 138.655352469000036, -34.920241908999969 ] } },
{ "type": "Feature", "properties": { "site_type": "SC", "site_no": "342", "site_desc": "Moules Road \/E of Davenport Terrace, Rostrevor, Norwood Morialta High", "road_no": null, "rrd_ul": null, "rrd_r": null, "suburb": null, "school_name": null, "resp": "SAG" }, "geometry": { "type": "Point", "coordinates": [ 138.678175988000021, -34.902564481999946 ] } },
{ "type": "Feature", "properties": { "site_type": "SC", "site_no": "346", "site_desc": "Glen Stuart Rd\/32m N of Moules Rd, Woodforde, Rostrevor College", "road_no": null, "rrd_ul": null, "rrd_r": null, "suburb": null, "school_name": null, "resp": "SAG" }, "geometry": { "type": "Point", "coordinates": [ 138.684273229000041, -34.901961163999943 ] } },
{ "type": "Feature", "properties": { "site_type": "SC", "site_no": "219", "site_desc": "Williams Road \/W of North Terrace, Millicent, Millicent North Primary", "road_no": null, "rrd_ul": null, "rrd_r": null, "suburb": null, "school_name": null, "resp": "SAG" }, "geometry": { "type": "Point", "coordinates": [ 140.344952755, -37.596344125999963 ] } },
{ "type": "Feature", "properties": { "site_type": "SC", "site_no": "336", "site_desc": "Doswell Tce\/23m E of Draper St, Kadina, Kadina Primary School", "road_no": null, "rrd_ul": null, "rrd_r": null, "suburb": null, "school_name": null, "resp": "LGA" }, "geometry": { "type": "Point", "coordinates": [ 137.711202712000045, -33.961622507999948 ] } },
{ "type": "Feature", "properties": { "site_type": "SC", "site_no": "006", "site_desc": "Blacks Road \/near Grand Junction Road, Gilles Plains, St Pauls College", "road_no": null, "rrd_ul": null, "rrd_r": null, "suburb": null, "school_name": null, "resp": "LGA" }, "geometry": { "type": "Point", "coordinates": [ 138.653320363000034, -34.846913972999971 ] } },
{ "type": "Feature", "properties": { "site_type": "SC", "site_no": "152", "site_desc": "Williamson Road \/E of Wilkinson Road, Para Hills, Para Hills Primary\/Infant", "road_no": null, "rrd_ul": null, "rrd_r": null, "suburb": null, "school_name": null, "resp": "LGA" }, "geometry": { "type": "Point", "coordinates": [ 138.651219114000014, -34.812911622999934 ] } },
{ "type": "Feature", "properties": { "site_type": "SC", "site_no": "088", "site_desc": "Williams Road \/N of Clinton Street, Millicent, St Anthony's Convent of Mercy", "road_no": null, "rrd_ul": null, "rrd_r": null, "suburb": null, "school_name": null, "resp": "SAG" }, "geometry": { "type": "Point", "coordinates": [ 140.358814192000068, -37.600252047999959 ] } },
{ "type": "Feature", "properties": { "site_type": "SC", "site_no": "245", "site_desc": "Market Street \/N of Mount Pleasant Road, Burra, Burra Community", "road_no": null, "rrd_ul": null, "rrd_r": null, "suburb": null, "school_name": null, "resp": "SAG" }, "geometry": { "type": "Point", "coordinates": [ 138.937432134000119, -33.68031543799998 ] } },
{ "type": "Feature", "properties": { "site_type": "SC", "site_no": "015", "site_desc": "Bevereux Road \/S of Glenroy Avenue, Beaumont, Linden Park Primary", "road_no": null, "rrd_ul": null, "rrd_r": null, "suburb": null, "school_name": null, "resp": "LGA" }, "geometry": { "type": "Point", "coordinates": [ 138.652079754000056, -34.947270972999945 ] } },
{ "type": "Feature", "properties": { "site_type": "SC", "site_no": "150", "site_desc": "South Terrace \/E of Scott Street, Pooraka, Pooraka Primary", "road_no": null, "rrd_ul": null, "rrd_r": null, "suburb": null, "school_name": null, "resp": "LGA" }, "geometry": { "type": "Point", "coordinates": [ 138.613322973000095, -34.832930443999942 ] } },
{ "type": "Feature", "properties": { "site_type": "SC", "site_no": "155", "site_desc": "Elizabeth Street \/S of St Helens Street, Banksia Park, Banksia Park Primary", "road_no": null, "rrd_ul": null, "rrd_r": null, "suburb": null, "school_name": null, "resp": "LGA" }, "geometry": { "type": "Point", "coordinates": [ 138.724242804000028, -34.808647872999984 ] } },
{ "type": "Feature", "properties": { "site_type": "SC", "site_no": "066", "site_desc": "Military Road \/S of Marlborough Street, Henley Beach, Star of the Sea Convent", "road_no": null, "rrd_ul": null, "rrd_r": null, "suburb": null, "school_name": null, "resp": "LGA" }, "geometry": { "type": "Point", "coordinates": [ 138.494141126000045, -34.914445236999939 ] } },
{ "type": "Feature", "properties": { "site_type": "SC", "site_no": "169", "site_desc": "Hawkers Road \/S of Briar Avenue, Medindie, Wilderness Girls", "road_no": null, "rrd_ul": null, "rrd_r": null, "suburb": null, "school_name": null, "resp": "LGA" }, "geometry": { "type": "Point", "coordinates": [ 138.60798236100004, -34.898181853999972 ] } },
{ "type": "Feature", "properties": { "site_type": "SC", "site_no": "126", "site_desc": "Fletcher Road \/S of Hughes Street, Birkenhead, Le Fevre Primary", "road_no": null, "rrd_ul": null, "rrd_r": null, "suburb": null, "school_name": null, "resp": "LGA" }, "geometry": { "type": "Point", "coordinates": [ 138.498015554000062, -34.838360478999959 ] } },
{ "type": "Feature", "properties": { "site_type": "SC", "site_no": "363", "site_desc": "Anzac Rd\/30m S of Swan St, Risdon Park-Pt Pirie, Airdale Primary School", "road_no": null, "rrd_ul": null, "rrd_r": null, "suburb": null, "school_name": null, "resp": "LGA" }, "geometry": { "type": "Point", "coordinates": [ 137.991283347000035, -33.200763472999938 ] } },
{ "type": "Feature", "properties": { "site_type": "SC", "site_no": "331", "site_desc": "Kingston Road \/E of Murdoch Street, Port Pirie, Risdon Park Primary", "road_no": null, "rrd_ul": null, "rrd_r": null, "suburb": null, "school_name": null, "resp": "LGA" }, "geometry": { "type": "Point", "coordinates": [ 138.008780213000023, -33.203962609999962 ] } },
{ "type": "Feature", "properties": { "site_type": "SC", "site_no": "123", "site_desc": "Main Street \/W of Chinner Street, Peterborough, Peterborough Primary", "road_no": null, "rrd_ul": null, "rrd_r": null, "suburb": null, "school_name": null, "resp": "SAG" }, "geometry": { "type": "Point", "coordinates": [ 138.832901486000083, -32.97375462399998 ] } },
{ "type": "Feature", "properties": { "site_type": "SC", "site_no": "257", "site_desc": "Whites Road \/25m S of Opel Avenue, Paralowie, Paralowie Primary", "road_no": null, "rrd_ul": null, "rrd_r": null, "suburb": null, "school_name": null, "resp": "LGA" }, "geometry": { "type": "Point", "coordinates": [ 138.618098627000109, -34.753032848999965 ] } },
{ "type": "Feature", "properties": { "site_type": "SC", "site_no": "290", "site_desc": "Adams Road \/S of Parri Road, Sheidow Park, Sheidow Park Primary", "road_no": null, "rrd_ul": null, "rrd_r": null, "suburb": null, "school_name": null, "resp": "LGA" }, "geometry": { "type": "Point", "coordinates": [ 138.530885587000057, -35.071280291999983 ] } },
{ "type": "Feature", "properties": { "site_type": "SC", "site_no": "137", "site_desc": "Elizabeth Terrace \/E of Paringa Road, Port Augusta, Willsden Primary", "road_no": null, "rrd_ul": null, "rrd_r": null, "suburb": null, "school_name": null, "resp": "LGA" }, "geometry": { "type": "Point", "coordinates": [ 137.77927111200006, -32.505917920999934 ] } },
{ "type": "Feature", "properties": { "site_type": "SC", "site_no": "343", "site_desc": "Gwy Tce\/260m N of Wallace St, Balaklava, Balaklava Primary School", "road_no": null, "rrd_ul": null, "rrd_r": null, "suburb": null, "school_name": null, "resp": "SAG" }, "geometry": { "type": "Point", "coordinates": [ 138.415664806000109, -34.152241928999956 ] } },
{ "type": "Feature", "properties": { "site_type": "SC", "site_no": "360", "site_desc": "Goode Rd\/13m E of Eighth St, Port Pirie West, Port Pirie West Primary School", "road_no": null, "rrd_ul": null, "rrd_r": null, "suburb": null, "school_name": null, "resp": "LGA" }, "geometry": { "type": "Point", "coordinates": [ 138.002701800000068, -33.18126742499993 ] } },
{ "type": "Feature", "properties": { "site_type": "SC", "site_no": "309", "site_desc": "The Terrace \/S of Goode Road, Port Pirie, Port Pirie West Primary", "road_no": null, "rrd_ul": null, "rrd_r": null, "suburb": null, "school_name": null, "resp": "LGA" }, "geometry": { "type": "Point", "coordinates": [ 138.003897761000076, -33.182171899999958 ] } },
{ "type": "Feature", "properties": { "site_type": "SC", "site_no": "304", "site_desc": "Fisher Street \/E of Beaconfield Street, Fullarton, Glen Osmond Primary", "road_no": null, "rrd_ul": null, "rrd_r": null, "suburb": null, "school_name": null, "resp": "LGA" }, "geometry": { "type": "Point", "coordinates": [ 138.636939874000063, -34.95629914899996 ] } },
{ "type": "Feature", "properties": { "site_type": "SC", "site_no": "373", "site_desc": "Eyre Hwy\/50 m W of Penong-Point Sinclair Rd, Penong, Penong Primary School", "road_no": null, "rrd_ul": null, "rrd_r": null, "suburb": null, "school_name": null, "resp": "SAG" }, "geometry": { "type": "Point", "coordinates": [ 133.006292724000104, -31.927879701999984 ] } },
{ "type": "Feature", "properties": { "site_type": "SC", "site_no": "145", "site_desc": "Brown Terace \/N of Orange Avenue, Salisbury, Salisbury Primary", "road_no": null, "rrd_ul": null, "rrd_r": null, "suburb": null, "school_name": null, "resp": "LGA" }, "geometry": { "type": "Point", "coordinates": [ 138.646045577000109, -34.766936539999961 ] } },
{ "type": "Feature", "properties": { "site_type": "SC", "site_no": "328", "site_desc": "Belalie Road \/S of Glenora Drive, Ingle Farm, Ingle Farm Primary", "road_no": null, "rrd_ul": null, "rrd_r": null, "suburb": null, "school_name": null, "resp": "LGA" }, "geometry": { "type": "Point", "coordinates": [ 138.640937184000109, -34.827818678999961 ] } },
{ "type": "Feature", "properties": { "site_type": "SC", "site_no": "008", "site_desc": "Murray Street \/W of Middle Street, Angaston, Angaston Primary", "road_no": null, "rrd_ul": null, "rrd_r": null, "suburb": null, "school_name": null, "resp": "SAG" }, "geometry": { "type": "Point", "coordinates": [ 139.049782224000069, -34.500485931999947 ] } },
{ "type": "Feature", "properties": { "site_type": "SC", "site_no": "034", "site_desc": "Main North Road \/S of Powell Street, Clare, Clare Primary", "road_no": null, "rrd_ul": null, "rrd_r": null, "suburb": null, "school_name": null, "resp": "SAG" }, "geometry": { "type": "Point", "coordinates": [ 138.616554843000017, -33.840849472999935 ] } },
{ "type": "Feature", "properties": { "site_type": "SC", "site_no": "281", "site_desc": "Martins Road \/SW of Universal Road, Salisbury Downs, Salisbury Downs Primary", "road_no": null, "rrd_ul": null, "rrd_r": null, "suburb": null, "school_name": null, "resp": "LGA" }, "geometry": { "type": "Point", "coordinates": [ 138.619814848000033, -34.768834672999958 ] } },
{ "type": "Feature", "properties": { "site_type": "SC", "site_no": "055", "site_desc": "Wandana Avenue \/N of Kopoola Crescent, Gilles Plains, Wandana Primary", "road_no": null, "rrd_ul": null, "rrd_r": null, "suburb": null, "school_name": null, "resp": "LGA" }, "geometry": { "type": "Point", "coordinates": [ 138.660620611000013, -34.849086180999961 ] } },
{ "type": "Feature", "properties": { "site_type": "SC", "site_no": "276", "site_desc": "Stewart Avenue \/N of Field Av, Naracoorte, Naracoorte High", "road_no": null, "rrd_ul": null, "rrd_r": null, "suburb": null, "school_name": null, "resp": "SAG" }, "geometry": { "type": "Point", "coordinates": [ 140.729083938000031, -36.949845024999945 ] } },
{ "type": "Feature", "properties": { "site_type": "SC", "site_no": "333", "site_desc": "Finch Road \/60m W of Hurst Road, Gawler East, Gawler East Primary", "road_no": null, "rrd_ul": null, "rrd_r": null, "suburb": null, "school_name": null, "resp": "LGA" }, "geometry": { "type": "Point", "coordinates": [ 138.76193072500007, -34.597568581999951 ] } },
{ "type": "Feature", "properties": { "site_type": "SC", "site_no": "292", "site_desc": "Fairford Terrace \/N of Teal Grove, Semaphore Park, Semaphore Park Primary", "road_no": null, "rrd_ul": null, "rrd_r": null, "suburb": null, "school_name": null, "resp": "LGA" }, "geometry": { "type": "Point", "coordinates": [ 138.488328802000069, -34.854876137999952 ] } },
{ "type": "Feature", "properties": { "site_type": "SC", "site_no": "364", "site_desc": "Main Nth Rd\/Second St, Gladstone, Gladstone High School", "road_no": null, "rrd_ul": null, "rrd_r": null, "suburb": null, "school_name": null, "resp": "SAG" }, "geometry": { "type": "Point", "coordinates": [ 138.353628494000077, -33.272625146999928 ] } },
{ "type": "Feature", "properties": { "site_type": "SC", "site_no": "325", "site_desc": "Keithcot Farm Drive \/NW of OLeary Place, Wynn Vale, Keithcot Farm Primary", "road_no": null, "rrd_ul": null, "rrd_r": null, "suburb": null, "school_name": null, "resp": "LGA" }, "geometry": { "type": "Point", "coordinates": [ 138.675930607000055, -34.799697605999938 ] } },
{ "type": "Feature", "properties": { "site_type": "SC", "site_no": "356", "site_desc": "Pt Wakefield-Yorketown Rd\/45n W of School Rd, Yorketown, Yorketown Area School", "road_no": null, "rrd_ul": null, "rrd_r": null, "suburb": null, "school_name": null, "resp": "SAG" }, "geometry": { "type": "Point", "coordinates": [ 137.613377256000035, -35.017701027999976 ] } },
{ "type": "Feature", "properties": { "site_type": "SC", "site_no": "067", "site_desc": "Seaview Road \/S of Marlborough Street, Henley Beach, Star of the Sea Convent", "road_no": null, "rrd_ul": null, "rrd_r": null, "suburb": null, "school_name": null, "resp": "SAG" }, "geometry": { "type": "Point", "coordinates": [ 138.492945613000074, -34.914568533999955 ] } },
{ "type": "Feature", "properties": { "site_type": "SC", "site_no": "279", "site_desc": "East Terrace \/N of Rowe Street, Strathalbyn, Strathalbyn Primary", "road_no": null, "rrd_ul": null, "rrd_r": null, "suburb": null, "school_name": null, "resp": "SAG" }, "geometry": { "type": "Point", "coordinates": [ 138.897325131000116, -35.25631634299998 ] } },
{ "type": "Feature", "properties": { "site_type": "SC", "site_no": "339", "site_desc": "The Parkway\/100m S of Field Ave, Victor Harbor, Victor Harbor Primary School", "road_no": null, "rrd_ul": null, "rrd_r": null, "suburb": null, "school_name": null, "resp": "LGA" }, "geometry": { "type": "Point", "coordinates": [ 138.624632632000043, -35.543085791999943 ] } },
{ "type": "Feature", "properties": { "site_type": "SC", "site_no": "073", "site_desc": "Adelaide Street \/E of Walker Avenue, Mannum, Mannum Primary and High", "road_no": null, "rrd_ul": null, "rrd_r": null, "suburb": null, "school_name": null, "resp": "SAG" }, "geometry": { "type": "Point", "coordinates": [ 139.303267446000064, -34.915121005999936 ] } },
{ "type": "Feature", "properties": { "site_type": "SC", "site_no": "268", "site_desc": "Shepherdson Road \/E of White Avenue, Mount Gambier, Tennyson College", "road_no": null, "rrd_ul": null, "rrd_r": null, "suburb": null, "school_name": null, "resp": "LGA" }, "geometry": { "type": "Point", "coordinates": [ 140.755326260000061, -37.827430478999929 ] } },
{ "type": "Feature", "properties": { "site_type": "SC", "site_no": "286", "site_desc": "Frogmore Road \/N of Alfrina Street, Kidman Park, Kidman Park Primary", "road_no": null, "rrd_ul": null, "rrd_r": null, "suburb": null, "school_name": null, "resp": "LGA" }, "geometry": { "type": "Point", "coordinates": [ 138.527708598000117, -34.912823455999956 ] } },
{ "type": "Feature", "properties": { "site_type": "SC", "site_no": "302", "site_desc": "Eyre Avenue \/near Dowd Street, Whyalla, Long Street Primary", "road_no": null, "rrd_ul": null, "rrd_r": null, "suburb": null, "school_name": null, "resp": "LGA" }, "geometry": { "type": "Point", "coordinates": [ 137.531778812000084, -33.038583022999944 ] } },
{ "type": "Feature", "properties": { "site_type": "SC", "site_no": "311", "site_desc": "Halba Crescent \/SW of Otoma Street, Paralowie, Paralowie Primary", "road_no": null, "rrd_ul": null, "rrd_r": null, "suburb": null, "school_name": null, "resp": "LGA" }, "geometry": { "type": "Point", "coordinates": [ 138.623375381000074, -34.753282076999938 ] } },
{ "type": "Feature", "properties": { "site_type": "SC", "site_no": "282", "site_desc": "Wilkinson Road \/NE of Warrigal Street, Para Hills, Para Hills Primary", "road_no": null, "rrd_ul": null, "rrd_r": null, "suburb": null, "school_name": null, "resp": "LGA" }, "geometry": { "type": "Point", "coordinates": [ 138.651195114000075, -34.811630561999948 ] } },
{ "type": "Feature", "properties": { "site_type": "SC", "site_no": "315", "site_desc": "Milne Road \/E of Elizabeth Street, Banksia Park, St Davids Primary", "road_no": null, "rrd_ul": null, "rrd_r": null, "suburb": null, "school_name": null, "resp": "LGA" }, "geometry": { "type": "Point", "coordinates": [ 138.72559405100003, -34.815650036999955 ] } },
{ "type": "Feature", "properties": { "site_type": "SC", "site_no": "262", "site_desc": "Highfield Avenue \/W of Durham Street, Linden Park, Linden Park Primary", "road_no": null, "rrd_ul": null, "rrd_r": null, "suburb": null, "school_name": null, "resp": "LGA" }, "geometry": { "type": "Point", "coordinates": [ 138.645495853000057, -34.94873182799995 ] } },
{ "type": "Feature", "properties": { "site_type": "SC", "site_no": "136", "site_desc": "Carlton Parade \/N of Rupert Street, Port Augusta, Carlton Primary", "road_no": null, "rrd_ul": null, "rrd_r": null, "suburb": null, "school_name": null, "resp": "LGA" }, "geometry": { "type": "Point", "coordinates": [ 137.778004779000071, -32.489489139999932 ] } },
{ "type": "Feature", "properties": { "site_type": "SC", "site_no": "303", "site_desc": "Yorktown Road \/NE of Ifould Road, Elizabeth Park, St Thomas Mores Parish", "road_no": null, "rrd_ul": null, "rrd_r": null, "suburb": null, "school_name": null, "resp": "SAG" }, "geometry": { "type": "Point", "coordinates": [ 138.681009761000041, -34.715246778999983 ] } },
{ "type": "Feature", "properties": { "site_type": "SC", "site_no": "127", "site_desc": "Fletcher Road \/S of Mooltan Avenue, Largs Bay, Largs Bay Primary", "road_no": null, "rrd_ul": null, "rrd_r": null, "suburb": null, "school_name": null, "resp": "LGA" }, "geometry": { "type": "Point", "coordinates": [ 138.494804504000058, -34.823356843999932 ] } },
{ "type": "Feature", "properties": { "site_type": "SC", "site_no": "352", "site_desc": "Main St \/ 50m East of Oval Rd, Warooka, Warooka Area School", "road_no": null, "rrd_ul": null, "rrd_r": null, "suburb": null, "school_name": null, "resp": "SAG" }, "geometry": { "type": "Point", "coordinates": [ 137.399276158000021, -34.990131905999931 ] } },
{ "type": "Feature", "properties": { "site_type": "SC", "site_no": "273", "site_desc": "Ridge Terrace \/E of Second Street, Millicent, Millicent North Primary", "road_no": null, "rrd_ul": null, "rrd_r": null, "suburb": null, "school_name": null, "resp": "SAG" }, "geometry": { "type": "Point", "coordinates": [ 140.345161853000036, -37.594871663999982 ] } },
{ "type": "Feature", "properties": { "site_type": "SC", "site_no": "285", "site_desc": "George Street \/E of Angelina Drive, Paradise, Paradise Primary", "road_no": null, "rrd_ul": null, "rrd_r": null, "suburb": null, "school_name": null, "resp": "LGA" }, "geometry": { "type": "Point", "coordinates": [ 138.68496282600006, -34.869174402999931 ] } },
{ "type": "Feature", "properties": { "site_type": "SC", "site_no": "261", "site_desc": "Wehl Street \/N of Fartch Street, Mount Gambier, North Gambier Primary", "road_no": null, "rrd_ul": null, "rrd_r": null, "suburb": null, "school_name": null, "resp": "LGA" }, "geometry": { "type": "Point", "coordinates": [ 140.778871172000095, -37.817689589999929 ] } },
{ "type": "Feature", "properties": { "site_type": "SC", "site_no": "108", "site_desc": "Wehl Street \/N of Shepherdson Road, Mount Gambier, Reidy Park Primary", "road_no": null, "rrd_ul": null, "rrd_r": null, "suburb": null, "school_name": null, "resp": "LGA" }, "geometry": { "type": "Point", "coordinates": [ 140.77190823400008, -37.831432837999955 ] } },
{ "type": "Feature", "properties": { "site_type": "SC", "site_no": "341", "site_desc": "Onkaparinga Valley Rd\/130m S of Sandow Rd, Verdun, The Hills Christian Cmnty PS", "road_no": null, "rrd_ul": null, "rrd_r": null, "suburb": null, "school_name": null, "resp": "SAG" }, "geometry": { "type": "Point", "coordinates": [ 138.786539436000112, -35.010111112999937 ] } },
{ "type": "Feature", "properties": { "site_type": "SC", "site_no": "387", "site_desc": "80m N of Gardiner, Goolwa, Goolwa Primary School", "road_no": null, "rrd_ul": null, "rrd_r": null, "suburb": null, "school_name": null, "resp": "SAG" }, "geometry": { "type": "Point", "coordinates": [ 138.779792304000011, -35.498302416999934 ] } },
{ "type": "Feature", "properties": { "site_type": "SC", "site_no": "269", "site_desc": "Strathalbyn Road \/S of Fairview Road, Aldgate, Aldgate Primary", "road_no": null, "rrd_ul": null, "rrd_r": null, "suburb": null, "school_name": null, "resp": "SAG" }, "geometry": { "type": "Point", "coordinates": [ 138.750277386000107, -35.018463530999952 ] } },
{ "type": "Feature", "properties": { "site_type": "SC", "site_no": "394", "site_desc": "Marmion Rd \/ 57m West of Easmon Lane, Blair Athol, Gepps Cross Primary School", "road_no": null, "rrd_ul": null, "rrd_r": null, "suburb": null, "school_name": null, "resp": "LGA" }, "geometry": { "type": "Point", "coordinates": [ 138.599227306000103, -34.852369619999934 ] } },
{ "type": "Feature", "properties": { "site_type": "SC", "site_no": "338", "site_desc": "Koonga Ave\/58m E of Bonvue Rd, Rostrevor, Stradbroke Primary School", "road_no": null, "rrd_ul": null, "rrd_r": null, "suburb": null, "school_name": null, "resp": "LGA" }, "geometry": { "type": "Point", "coordinates": [ 138.684638697000082, -34.894309413999963 ] } },
{ "type": "Feature", "properties": { "site_type": "SC", "site_no": "322", "site_desc": "Sunnybrook Drive \/NE of Medlands Close, Wynn Vale, Sunnybrook Campus Primary", "road_no": null, "rrd_ul": null, "rrd_r": null, "suburb": null, "school_name": null, "resp": "LGA" }, "geometry": { "type": "Point", "coordinates": [ 138.688562773000058, -34.800256308999963 ] } },
{ "type": "Feature", "properties": { "site_type": "SC", "site_no": "303", "site_desc": "Yorktown Road \/NE of Ifould Road, Elizabeth Park, St Thomas Mores Parish", "road_no": null, "rrd_ul": null, "rrd_r": null, "suburb": null, "school_name": null, "resp": "SAG" }, "geometry": { "type": "Point", "coordinates": [ 138.681196563000071, -34.715326840999978 ] } },
{ "type": "Feature", "properties": { "site_type": "SC", "site_no": "206", "site_desc": "Torrens Road \/NW of Pennington Terrace, Pennington, Mount Carmel Primary", "road_no": null, "rrd_ul": null, "rrd_r": null, "suburb": null, "school_name": null, "resp": "LGA" }, "geometry": { "type": "Point", "coordinates": [ 138.524377166000022, -34.860603228999935 ] } },
{ "type": "Feature", "properties": { "site_type": "SC", "site_no": "305", "site_desc": "Murrays Hill Road \/SE of Lyric Place, Flagstaff Hill, Craigburn Primary", "road_no": null, "rrd_ul": null, "rrd_r": null, "suburb": null, "school_name": null, "resp": "LGA" }, "geometry": { "type": "Point", "coordinates": [ 138.616676516000098, -35.056242193999935 ] } },
{ "type": "Feature", "properties": { "site_type": "SC", "site_no": "241", "site_desc": "Norrie Avenue \/N of St John Crescent, Whyalla, Nicholson Avenue Primary", "road_no": null, "rrd_ul": null, "rrd_r": null, "suburb": null, "school_name": null, "resp": "LGA" }, "geometry": { "type": "Point", "coordinates": [ 137.551374578000036, -33.029256240999985 ] } },
{ "type": "Feature", "properties": { "site_type": "SC", "site_no": "241", "site_desc": "Norrie Avenue \/N of St John Crescent, Whyalla, Nicholson Avenue Primary", "road_no": null, "rrd_ul": null, "rrd_r": null, "suburb": null, "school_name": null, "resp": "LGA" }, "geometry": { "type": "Point", "coordinates": [ 137.55113252000001, -33.029308306999951 ] } },
{ "type": "Feature", "properties": { "site_type": "SC", "site_no": "347", "site_desc": "Main Nth Rd\/100m N of St Vincents Rd, Watervale, Watervale Primary School", "road_no": null, "rrd_ul": null, "rrd_r": null, "suburb": null, "school_name": null, "resp": "SAG" }, "geometry": { "type": "Point", "coordinates": [ 138.645122885000092, -33.95971502499998 ] } },
{ "type": "Feature", "properties": { "site_type": "SC", "site_no": "359", "site_desc": "Thiele Hwy\/240 m W of Reserve Rd, Eudunda, Eudunda Area School", "road_no": null, "rrd_ul": null, "rrd_r": null, "suburb": null, "school_name": null, "resp": "SAG" }, "geometry": { "type": "Point", "coordinates": [ 139.088236594000023, -34.178246791999982 ] } },
{ "type": "Feature", "properties": { "site_type": "SC", "site_no": "215", "site_desc": "Galloway Road \/NW of Roopena Street, O'Sullivan Beach, O'Sullivan Beach Primary", "road_no": null, "rrd_ul": null, "rrd_r": null, "suburb": null, "school_name": null, "resp": "LGA" }, "geometry": { "type": "Point", "coordinates": [ 138.479864895000105, -35.124809157999948 ] } },
{ "type": "Feature", "properties": { "site_type": "SC", "site_no": "298", "site_desc": "Highgate Street \/N of Church Street, Highgate, Highgate Primary", "road_no": null, "rrd_ul": null, "rrd_r": null, "suburb": null, "school_name": null, "resp": "LGA" }, "geometry": { "type": "Point", "coordinates": [ 138.621760347000077, -34.963423478999971 ] } },
{ "type": "Feature", "properties": { "site_type": "SC", "site_no": "277", "site_desc": "Bradford Street \/S of Lockhart Street, Whyalla, Memorial Oval Primary", "road_no": null, "rrd_ul": null, "rrd_r": null, "suburb": null, "school_name": null, "resp": "LGA" }, "geometry": { "type": "Point", "coordinates": [ 137.567654972000014, -33.03401764299997 ] } },
{ "type": "Feature", "properties": { "site_type": "SC", "site_no": "314", "site_desc": "Wattle Street \/E of Unley Road, Malvern, Unley Primary", "road_no": null, "rrd_ul": null, "rrd_r": null, "suburb": null, "school_name": null, "resp": "LGA" }, "geometry": { "type": "Point", "coordinates": [ 138.609724118000031, -34.954646105999984 ] } },
{ "type": "Feature", "properties": { "site_type": "SC", "site_no": "222", "site_desc": "Jenkins Avenue \/W of Henshelwood Street, Whyalla, Hincks Avenue Primary\/Infant", "road_no": null, "rrd_ul": null, "rrd_r": null, "suburb": null, "school_name": null, "resp": "LGA" }, "geometry": { "type": "Point", "coordinates": [ 137.545073499000068, -33.016351877999966 ] } },
{ "type": "Feature", "properties": { "site_type": "SC", "site_no": "222", "site_desc": "Jenkins Avenue \/W of Henshelwood Street, Whyalla, Hincks Avenue Primary\/Infant", "road_no": null, "rrd_ul": null, "rrd_r": null, "suburb": null, "school_name": null, "resp": "LGA" }, "geometry": { "type": "Point", "coordinates": [ 137.54500022700006, -33.016497770999933 ] } },
{ "type": "Feature", "properties": { "site_type": "SC", "site_no": "190", "site_desc": "Nicholson Avenue \/E of Stead Street, Whyalla, Nicholson Avenue Primary", "road_no": null, "rrd_ul": null, "rrd_r": null, "suburb": null, "school_name": null, "resp": "LGA" }, "geometry": { "type": "Point", "coordinates": [ 137.54981349000002, -33.02816357599994 ] } },
{ "type": "Feature", "properties": { "site_type": "SC", "site_no": "190", "site_desc": "Nicholson Avenue \/E of Stead Street, Whyalla, Nicholson Avenue Primary", "road_no": null, "rrd_ul": null, "rrd_r": null, "suburb": null, "school_name": null, "resp": "LGA" }, "geometry": { "type": "Point", "coordinates": [ 137.549807133000058, -33.028054664999956 ] } },
{ "type": "Feature", "properties": { "site_type": "SC", "site_no": "361", "site_desc": "Port Rd\/30 W of King William St, Auburn, Auburn Primary School", "road_no": null, "rrd_ul": null, "rrd_r": null, "suburb": null, "school_name": null, "resp": "SAG" }, "geometry": { "type": "Point", "coordinates": [ 138.681405226000038, -34.028030182999942 ] } },
{ "type": "Feature", "properties": { "site_type": "SC", "site_no": "378", "site_desc": "Strathalbyn Rd\/60m S of Stock Rd, Mylor, Mylor Primary School", "road_no": null, "rrd_ul": null, "rrd_r": null, "suburb": null, "school_name": null, "resp": "SAG" }, "geometry": { "type": "Point", "coordinates": [ 138.760668763000012, -35.04087934599994 ] } },
{ "type": "Feature", "properties": { "site_type": "SC", "site_no": "307", "site_desc": "May Crescent \/W of Bayview Crescent, Ceduna, Ceduna Area", "road_no": null, "rrd_ul": null, "rrd_r": null, "suburb": null, "school_name": null, "resp": "LGA" }, "geometry": { "type": "Point", "coordinates": [ 133.671616726000025, -32.136682059999941 ] } },
{ "type": "Feature", "properties": { "site_type": "SC", "site_no": "254", "site_desc": "Parsons Road \/N of Tristania Terrace, Dernancourt, Dernancourt Primary", "road_no": null, "rrd_ul": null, "rrd_r": null, "suburb": null, "school_name": null, "resp": "LGA" }, "geometry": { "type": "Point", "coordinates": [ 138.671134480000092, -34.861507217999929 ] } },
{ "type": "Feature", "properties": { "site_type": "SC", "site_no": "335", "site_desc": "Windsor Grove \/near Hillburn Avenue, Windsor Gardens, St Pius X Primary", "road_no": null, "rrd_ul": null, "rrd_r": null, "suburb": null, "school_name": null, "resp": "LGA" }, "geometry": { "type": "Point", "coordinates": [ 138.64264085100001, -34.868941316999951 ] } },
{ "type": "Feature", "properties": { "site_type": "SC", "site_no": "004", "site_desc": "James Street \/E of Sycamore Terrace, Campbelltown, East Marden Primary", "road_no": null, "rrd_ul": null, "rrd_r": null, "suburb": null, "school_name": null, "resp": "LGA" }, "geometry": { "type": "Point", "coordinates": [ 138.652473247000103, -34.882849122999971 ] } },
{ "type": "Feature", "properties": { "site_type": "SC", "site_no": "324", "site_desc": "Shepherds Lane \/S of Mines Road, Campbelltown, East Marden Primary", "road_no": null, "rrd_ul": null, "rrd_r": null, "suburb": null, "school_name": null, "resp": "LGA" }, "geometry": { "type": "Point", "coordinates": [ 138.654817064000099, -34.882104355999957 ] } },
{ "type": "Feature", "properties": { "site_type": "SC", "site_no": "358", "site_desc": "Silver St\/30m N of South Tce, Peterborough, St Josephs Catholic School", "road_no": null, "rrd_ul": null, "rrd_r": null, "suburb": null, "school_name": null, "resp": "SAG" }, "geometry": { "type": "Point", "coordinates": [ 138.840715477000117, -32.976198573999966 ] } },
{ "type": "Feature", "properties": { "site_type": "SC", "site_no": "357", "site_desc": "Wildman St\/73 m S of Hughes St, Wallaroo, Wallaroo Primary School", "road_no": null, "rrd_ul": null, "rrd_r": null, "suburb": null, "school_name": null, "resp": "SAG" }, "geometry": { "type": "Point", "coordinates": [ 137.623541571000032, -33.932497464999983 ] } },
{ "type": "Feature", "properties": { "site_type": "SC", "site_no": "107", "site_desc": "O'Halloran Terrace \/E of Howland Street, Mount Gambier, Reidy Park Primary", "road_no": null, "rrd_ul": null, "rrd_r": null, "suburb": null, "school_name": null, "resp": "LGA" }, "geometry": { "type": "Point", "coordinates": [ 140.772593418000042, -37.834838325999954 ] } },
{ "type": "Feature", "properties": { "site_type": "SC", "site_no": "104", "site_desc": "Boandik Terrace \/E of Bray Street, Mount Gambier, East Gambier Primary", "road_no": null, "rrd_ul": null, "rrd_r": null, "suburb": null, "school_name": null, "resp": "LGA" }, "geometry": { "type": "Point", "coordinates": [ 140.793411000000106, -37.840416765999976 ] } },
{ "type": "Feature", "properties": { "site_type": "SC", "site_no": "238", "site_desc": "Whites Road \/N of Crane Street, Bordertown, Bordertown High", "road_no": null, "rrd_ul": null, "rrd_r": null, "suburb": null, "school_name": null, "resp": "LGA" }, "geometry": { "type": "Point", "coordinates": [ 140.768718574000104, -36.312640893999969 ] } },
{ "type": "Feature", "properties": { "site_type": "SC", "site_no": "351", "site_desc": "Harvey St\/60m N of South Tce, Port Broughton, Port Broughton Primary School", "road_no": null, "rrd_ul": null, "rrd_r": null, "suburb": null, "school_name": null, "resp": "SAG" }, "geometry": { "type": "Point", "coordinates": [ 137.931245261000072, -33.602748574999964 ] } },
{ "type": "Feature", "properties": { "site_type": "SC", "site_no": "327", "site_desc": "Condcord Drive \/W of Burgoyne Drive, Old Reynella, Reynella Primary", "road_no": null, "rrd_ul": null, "rrd_r": null, "suburb": null, "school_name": null, "resp": "LGA" }, "geometry": { "type": "Point", "coordinates": [ 138.537643635000109, -35.099877318999972 ] } },
{ "type": "Feature", "properties": { "site_type": "SC", "site_no": "354", "site_desc": "Quorn Rd \/ west of Oval Rd, Stirling North, Stirling North Kindergarden", "road_no": null, "rrd_ul": null, "rrd_r": null, "suburb": null, "school_name": null, "resp": "SAG" }, "geometry": { "type": "Point", "coordinates": [ 137.838600808000024, -32.517738892999944 ] } },
{ "type": "Feature", "properties": { "site_type": "SC", "site_no": "085", "site_desc": "South Road \/N of Christina Street, Edwardstown, St Anthonys", "road_no": null, "rrd_ul": null, "rrd_r": null, "suburb": null, "school_name": null, "resp": "SAG" }, "geometry": { "type": "Point", "coordinates": [ 138.573184535000109, -34.968366549999985 ] } },
{ "type": "Feature", "properties": { "site_type": "SC", "site_no": "085", "site_desc": "South Road \/N of Christina Street, Edwardstown, St Anthony's", "road_no": null, "rrd_ul": null, "rrd_r": null, "suburb": null, "school_name": null, "resp": "SAG" }, "geometry": { "type": "Point", "coordinates": [ 138.57288768, -34.96854064799993 ] } },
{ "type": "Feature", "properties": { "site_type": "SC", "site_no": "074", "site_desc": "Celtic Avenue \/W of Renown Avenue, Clovelly Park, Mitchell Park Primary", "road_no": null, "rrd_ul": null, "rrd_r": null, "suburb": null, "school_name": null, "resp": "LGA" }, "geometry": { "type": "Point", "coordinates": [ 138.566710986000089, -35.000148842999977 ] } },
{ "type": "Feature", "properties": { "site_type": "SC", "site_no": "377", "site_desc": "Kapunda-Morgan Rd\/3om E of Eleventh St, Morgan, Morgan Primary School", "road_no": null, "rrd_ul": null, "rrd_r": null, "suburb": null, "school_name": null, "resp": "SAG" }, "geometry": { "type": "Point", "coordinates": [ 139.670380919000081, -34.030967587999953 ] } },
{ "type": "Feature", "properties": { "site_type": "SC", "site_no": "306", "site_desc": "May Terrace \/N of Lipsett Terrace, Brooklyn Park, Lockleys Primary", "road_no": null, "rrd_ul": null, "rrd_r": null, "suburb": null, "school_name": null, "resp": "LGA" }, "geometry": { "type": "Point", "coordinates": [ 138.53445347100012, -34.930308680999929 ] } },
{ "type": "Feature", "properties": { "site_type": "SC", "site_no": "225", "site_desc": "Hamblynn Road \/NW of Campbell Road, Elizabeth Downs, Elizabeth Downs Primary", "road_no": null, "rrd_ul": null, "rrd_r": null, "suburb": null, "school_name": null, "resp": "LGA" }, "geometry": { "type": "Point", "coordinates": [ 138.691212023000048, -34.699152559999959 ] } },
{ "type": "Feature", "properties": { "site_type": "SC", "site_no": "381", "site_desc": "West Tce\/10m S of Stokes Rd, Quorn, Quorn Area School", "road_no": null, "rrd_ul": null, "rrd_r": null, "suburb": null, "school_name": null, "resp": "SAG" }, "geometry": { "type": "Point", "coordinates": [ 138.037020644000108, -32.347240890999956 ] } },
{ "type": "Feature", "properties": { "site_type": "SC", "site_no": "368", "site_desc": "Riddoch St\/E of Scott St, Penola, Penola Primary School", "road_no": null, "rrd_ul": null, "rrd_r": null, "suburb": null, "school_name": null, "resp": "SAG" }, "geometry": { "type": "Point", "coordinates": [ 140.833772181000086, -37.380601199999944 ] } },
{ "type": "Feature", "properties": { "site_type": "SC", "site_no": "246", "site_desc": "East Parade \/S of Eynesbury Avenue, Kingswood, Mitcham Primary", "road_no": null, "rrd_ul": null, "rrd_r": null, "suburb": null, "school_name": null, "resp": "LGA" }, "geometry": { "type": "Point", "coordinates": [ 138.613749311000106, -34.972579937999967 ] } },
{ "type": "Feature", "properties": { "site_type": "SC", "site_no": "065", "site_desc": "Shannon Street \/E of primary school gate, Birdwood, Birdwood Primary\/Infant", "road_no": null, "rrd_ul": null, "rrd_r": null, "suburb": null, "school_name": null, "resp": "SAG" }, "geometry": { "type": "Point", "coordinates": [ 138.958627797000076, -34.819597014999943 ] } },
{ "type": "Feature", "properties": { "site_type": "SC", "site_no": "301", "site_desc": "Balhannah Road \/W of Church Street, Hahndorf, St Michaels Primary", "road_no": null, "rrd_ul": null, "rrd_r": null, "suburb": null, "school_name": null, "resp": "LGA" }, "geometry": { "type": "Point", "coordinates": [ 138.811642815000027, -35.027993386999981 ] } },
{ "type": "Feature", "properties": { "site_type": "SC", "site_no": "243", "site_desc": "Ridley Grove \/E of Albion Street, Woodville Gardens, Ridley Grove Primary", "road_no": null, "rrd_ul": null, "rrd_r": null, "suburb": null, "school_name": null, "resp": "LGA" }, "geometry": { "type": "Point", "coordinates": [ 138.550438804, -34.864133183999968 ] } },
{ "type": "Feature", "properties": { "site_type": "SC", "site_no": "337", "site_desc": "Golden Grove Rd\/64m W of Laburnum Dr, Greenwith, Greenwith Primary", "road_no": null, "rrd_ul": null, "rrd_r": null, "suburb": null, "school_name": null, "resp": "LGA" }, "geometry": { "type": "Point", "coordinates": [ 138.720448559000033, -34.769125710999958 ] } },
{ "type": "Feature", "properties": { "site_type": "SC", "site_no": "189", "site_desc": "Darling Terrace \/S of Donaldson Terrace, Whyalla, St Theresa's & Whyalla Primary", "road_no": null, "rrd_ul": null, "rrd_r": null, "suburb": null, "school_name": null, "resp": "LGA" }, "geometry": { "type": "Point", "coordinates": [ 137.58440706600004, -33.036350327999969 ] } },
{ "type": "Feature", "properties": { "site_type": "SC", "site_no": "264", "site_desc": "Mitton Avenue \/S of Buckingham Street, Henley Beach, Fulham Gardens Primary", "road_no": null, "rrd_ul": null, "rrd_r": null, "suburb": null, "school_name": null, "resp": "LGA" }, "geometry": { "type": "Point", "coordinates": [ 138.504464573000064, -34.91237969499997 ] } },
{ "type": "Feature", "properties": { "site_type": "SC", "site_no": "270", "site_desc": "Kauri Parade \/S of Pine Avenue, Seacliff, Seacliff Primary", "road_no": null, "rrd_ul": null, "rrd_r": null, "suburb": null, "school_name": null, "resp": "LGA" }, "geometry": { "type": "Point", "coordinates": [ 138.521783817000028, -35.036523034999959 ] } },
{ "type": "Feature", "properties": { "site_type": "SC", "site_no": "375", "site_desc": "Hughes St\/40m W of Stirling St, Wallaroo, Wallaroo Primary School", "road_no": null, "rrd_ul": null, "rrd_r": null, "suburb": null, "school_name": null, "resp": "SAG" }, "geometry": { "type": "Point", "coordinates": [ 137.624870326000064, -33.932303911999952 ] } },
{ "type": "Feature", "properties": { "site_type": "SC", "site_no": "240", "site_desc": "Elizabeth Road \/SE of Peregrine Crescent, Christie Downs, Christie Downs Primary & Speci", "road_no": null, "rrd_ul": null, "rrd_r": null, "suburb": null, "school_name": null, "resp": "LGA" }, "geometry": { "type": "Point", "coordinates": [ 138.492271052000092, -35.132845059999966 ] } },
{ "type": "Feature", "properties": { "site_type": "SC", "site_no": "255", "site_desc": "North Terrace \/NW of Livingstone Street, Mount Gambier, McDonald Park Primary", "road_no": null, "rrd_ul": null, "rrd_r": null, "suburb": null, "school_name": null, "resp": "LGA" }, "geometry": { "type": "Point", "coordinates": [ 140.793652933000089, -37.826813059999949 ] } },
{ "type": "Feature", "properties": { "site_type": "SC", "site_no": "234", "site_desc": "Brownes Road \/E of Thurston Street, Mount Gambier, Mount Gambier High", "road_no": null, "rrd_ul": null, "rrd_r": null, "suburb": null, "school_name": null, "resp": "LGA" }, "geometry": { "type": "Point", "coordinates": [ 140.767584672000112, -37.82559338599998 ] } },
{ "type": "Feature", "properties": { "site_type": "SC", "site_no": "056", "site_desc": "Fairfield Road \/SW of Burgate Street, Elizabeth Grove, Elizabeth Grove Primary", "road_no": null, "rrd_ul": null, "rrd_r": null, "suburb": null, "school_name": null, "resp": "LGA" }, "geometry": { "type": "Point", "coordinates": [ 138.66967666000005, -34.73534585699997 ] } },
{ "type": "Feature", "properties": { "site_type": "SC", "site_no": "256", "site_desc": "Diment Road \/E of Mannara Drive, Salisbury North, Direk Primary", "road_no": null, "rrd_ul": null, "rrd_r": null, "suburb": null, "school_name": null, "resp": "LGA" }, "geometry": { "type": "Point", "coordinates": [ 138.622384566000051, -34.737482655999941 ] } },
{ "type": "Feature", "properties": { "site_type": "SC", "site_no": "239", "site_desc": "Cottenham Road \/E of Linton Street, Banksia Park, Banksia Park Primary", "road_no": null, "rrd_ul": null, "rrd_r": null, "suburb": null, "school_name": null, "resp": "LGA" }, "geometry": { "type": "Point", "coordinates": [ 138.726564756000016, -34.808179423999945 ] } },
{ "type": "Feature", "properties": { "site_type": "SC", "site_no": "265", "site_desc": "Malbeck Drive \/N of Stoneyhill Street, Reynella East, Reynella East Primary", "road_no": null, "rrd_ul": null, "rrd_r": null, "suburb": null, "school_name": null, "resp": "LGA" }, "geometry": { "type": "Point", "coordinates": [ 138.554635211000118, -35.090966426999955 ] } },
{ "type": "Feature", "properties": { "site_type": "SC", "site_no": "250", "site_desc": "Grant Avenue \/E of Gurney Road, Rose Park, Rose Park Primary", "road_no": null, "rrd_ul": null, "rrd_r": null, "suburb": null, "school_name": null, "resp": "LGA" }, "geometry": { "type": "Point", "coordinates": [ 138.629113327000027, -34.932131290999962 ] } },
{ "type": "Feature", "properties": { "site_type": "SC", "site_no": "247", "site_desc": "Jenkins Avenue \/W of Pattinson Close, Whyalla, Fisk Street Primary", "road_no": null, "rrd_ul": null, "rrd_r": null, "suburb": null, "school_name": null, "resp": "LGA" }, "geometry": { "type": "Point", "coordinates": [ 137.53383068100004, -33.015052907999973 ] } },
{ "type": "Feature", "properties": { "site_type": "SC", "site_no": "332", "site_desc": "Kensington Way \/40m NE of Bond Crescent, Burton, Burton Primary", "road_no": null, "rrd_ul": null, "rrd_r": null, "suburb": null, "school_name": null, "resp": "LGA" }, "geometry": { "type": "Point", "coordinates": [ 138.598289547000036, -34.741945414999975 ] } },
{ "type": "Feature", "properties": { "site_type": "SC", "site_no": "293", "site_desc": "Goddard Drive \/NW of Carlingford Drive, Salisbury Park, Salisbury Park Primary", "road_no": null, "rrd_ul": null, "rrd_r": null, "suburb": null, "school_name": null, "resp": "LGA" }, "geometry": { "type": "Point", "coordinates": [ 138.669176905000086, -34.760704540999939 ] } },
{ "type": "Feature", "properties": { "site_type": "SC", "site_no": "247", "site_desc": "Jenkins Avenue \/W of Pattinson Close, Whyalla, Fisk Street Primary", "road_no": null, "rrd_ul": null, "rrd_r": null, "suburb": null, "school_name": null, "resp": "LGA" }, "geometry": { "type": "Point", "coordinates": [ 137.533817766000084, -33.014897343999962 ] } },
{ "type": "Feature", "properties": { "site_type": "SC", "site_no": "274", "site_desc": "Renown Avenue \/N of Australian Avenue, Clovelly Park, Mitchell Park Primary", "road_no": null, "rrd_ul": null, "rrd_r": null, "suburb": null, "school_name": null, "resp": "LGA" }, "geometry": { "type": "Point", "coordinates": [ 138.566975691000039, -34.999026728999979 ] } },
{ "type": "Feature", "properties": { "site_type": "SC", "site_no": "383", "site_desc": "Conyngham St\/40m N of Avenue Rd, Glenunga, Glenunga Intnl High School", "road_no": null, "rrd_ul": null, "rrd_r": null, "suburb": null, "school_name": null, "resp": "LGA" }, "geometry": { "type": "Point", "coordinates": [ 138.634409489000063, -34.949871987999984 ] } },
{ "type": "Feature", "properties": { "site_type": "SC", "site_no": "220", "site_desc": "Adelaide Place \/S of Lincoln Place, Port Lincoln, Port Lincoln Primary", "road_no": null, "rrd_ul": null, "rrd_r": null, "suburb": null, "school_name": null, "resp": "LGA" }, "geometry": { "type": "Point", "coordinates": [ 135.856446285000061, -34.723262101999978 ] } },
{ "type": "Feature", "properties": { "site_type": "SC", "site_no": "362", "site_desc": "Adelaide-Mannum Rd\/200m W of Victoria St, Gumeracha, Gumeracha Primary School", "road_no": null, "rrd_ul": null, "rrd_r": null, "suburb": null, "school_name": null, "resp": "SAG" }, "geometry": { "type": "Point", "coordinates": [ 138.880957435000028, -34.825440122999964 ] } },
{ "type": "Feature", "properties": { "site_type": "SC", "site_no": "323", "site_desc": "Daphne Road \/N of Welby Avenue, Salisbury East, Madison Park Primary", "road_no": null, "rrd_ul": null, "rrd_r": null, "suburb": null, "school_name": null, "resp": "LGA" }, "geometry": { "type": "Point", "coordinates": [ 138.660777109000037, -34.783628055999941 ] } },
{ "type": "Feature", "properties": { "site_type": "SC", "site_no": "320", "site_desc": "Newcastle Street \/E of Dundas Street, Rosewater, Mount Carmel College", "road_no": null, "rrd_ul": null, "rrd_r": null, "suburb": null, "school_name": null, "resp": "LGA" }, "geometry": { "type": "Point", "coordinates": [ 138.522446721000051, -34.856007399999953 ] } },
{ "type": "Feature", "properties": { "site_type": "SC", "site_no": "300", "site_desc": "Sandison Road \/N of Gledsdale Road, Hallett Cove, Hallett Cove Primary", "road_no": null, "rrd_ul": null, "rrd_r": null, "suburb": null, "school_name": null, "resp": "LGA" }, "geometry": { "type": "Point", "coordinates": [ 138.509687483000107, -35.076827910999953 ] } },
{ "type": "Feature", "properties": { "site_type": "SC", "site_no": "379", "site_desc": "Ramco Rd\/450m W of Ramco Pt Rd, Ramco, Ramco School", "road_no": null, "rrd_ul": null, "rrd_r": null, "suburb": null, "school_name": null, "resp": "SAG" }, "geometry": { "type": "Point", "coordinates": [ 139.93252807500005, -34.170259173999966 ] } },
{ "type": "Feature", "properties": { "site_type": "SC", "site_no": "413", "site_desc": "Jenkins Rd - Cowandilla Primary School", "road_no": null, "rrd_ul": null, "rrd_r": null, "suburb": null, "school_name": null, "resp": "LGA" }, "geometry": { "type": "Point", "coordinates": [ 138.56028329500009, -34.933717992999959 ] } },
{ "type": "Feature", "properties": { "site_type": "SC", "site_no": "403", "site_desc": "Bicentennial Dr - Approx. 225m NE of Botany Dr, Golden Grove Primary School", "road_no": null, "rrd_ul": null, "rrd_r": null, "suburb": null, "school_name": null, "resp": "LGA" }, "geometry": { "type": "Point", "coordinates": [ 138.710413673000062, -34.786604175999969 ] } },
{ "type": "Feature", "properties": { "site_type": "SC", "site_no": "400", "site_desc": "Highgate St - 41m N of Winchester St", "road_no": null, "rrd_ul": null, "rrd_r": null, "suburb": null, "school_name": null, "resp": "LGA" }, "geometry": { "type": "Point", "coordinates": [ 138.621208793000051, -34.959746602999928 ] } },
{ "type": "Feature", "properties": { "site_type": "SC", "site_no": "227", "site_desc": "South Terrace \/E of Park Terrace, Bordertown, Bordertown Primary", "road_no": null, "rrd_ul": null, "rrd_r": null, "suburb": null, "school_name": null, "resp": "LGA" }, "geometry": { "type": "Point", "coordinates": [ 140.765884009000047, -36.312768973999937 ] } },
{ "type": "Feature", "properties": { "site_type": "SC", "site_no": "345", "site_desc": "Hart Rd\/38m E of Freer St, Semaphore South, Le Fevre High School", "road_no": null, "rrd_ul": null, "rrd_r": null, "suburb": null, "school_name": null, "resp": "SAG" }, "geometry": { "type": "Point", "coordinates": [ 138.485507610000013, -34.845042082999953 ] } },
{ "type": "Feature", "properties": { "site_type": "SC", "site_no": "412", "site_desc": "Aldinga Beach Rd, Aldinga Beach, Southern Vales Christian Community School", "road_no": null, "rrd_ul": null, "rrd_r": null, "suburb": null, "school_name": null, "resp": "SAG" }, "geometry": { "type": "Point", "coordinates": [ 138.468199963000075, -35.278568392999944 ] } },
{ "type": "Feature", "properties": { "site_type": "SC", "site_no": "407", "site_desc": "Fosters Rd, Cedar College at Northgate", "road_no": null, "rrd_ul": null, "rrd_r": null, "suburb": null, "school_name": null, "resp": "SAG" }, "geometry": { "type": "Point", "coordinates": [ 138.635942883000098, -34.855111803999932 ] } },
{ "type": "Feature", "properties": { "site_type": "SC", "site_no": "062", "site_desc": "Woodford Road \/S of Broxmore Street, Elizabeth North, Elizabeth North Primary", "road_no": null, "rrd_ul": null, "rrd_r": null, "suburb": null, "school_name": null, "resp": "LGA" }, "geometry": { "type": "Point", "coordinates": [ 138.675011903000041, -34.704033989999971 ] } },
{ "type": "Feature", "properties": { "site_type": "SC", "site_no": "418", "site_desc": "Corckerton Rd, Playford International College", "road_no": null, "rrd_ul": null, "rrd_r": null, "suburb": null, "school_name": null, "resp": "LGA" }, "geometry": { "type": "Point", "coordinates": [ 138.667034802000103, -34.722730630999934 ] } },
{ "type": "Feature", "properties": { "site_type": "SC", "site_no": "313", "site_desc": "Gilles Road \/E of Bagot Street, Glen Osmond, Seymour Senior College", "road_no": null, "rrd_ul": null, "rrd_r": null, "suburb": null, "school_name": null, "resp": "LGA" }, "geometry": { "type": "Point", "coordinates": [ 138.650036610000029, -34.957191813999941 ] } },
{ "type": "Feature", "properties": { "site_type": "SC", "site_no": "425", "site_desc": "Barassi St approx 200m north of Ronaldo Way, Settlers Farm Campus Primary School", "road_no": null, "rrd_ul": null, "rrd_r": null, "suburb": null, "school_name": null, "resp": "LGA" }, "geometry": { "type": "Point", "coordinates": [ 138.594526537000093, -34.756114468999954 ] } },
{ "type": "Feature", "properties": { "site_type": "SC", "site_no": "229", "site_desc": "Mead Street \/S of Shorney Street, Birkenhead, Le Fevre Primary", "road_no": null, "rrd_ul": null, "rrd_r": null, "suburb": null, "school_name": null, "resp": "LGA" }, "geometry": { "type": "Point", "coordinates": [ 138.49404005100007, -34.840105801999982 ] } },
{ "type": "Feature", "properties": { "site_type": "SC", "site_no": "005", "site_desc": "Hay Street \/60m W of Burnell Street, Linden Park, Linden Park Primary", "road_no": null, "rrd_ul": null, "rrd_r": null, "suburb": null, "school_name": null, "resp": "LGA" }, "geometry": { "type": "Point", "coordinates": [ 138.6468368190001, -34.947168228999942 ] } },
{ "type": "Feature", "properties": { "site_type": "SC", "site_no": "350", "site_desc": "Upper Sturt Rd\/20m W of Fernwood Way\/eastern access, Upper Sturt, Upper Sturt Primary", "road_no": null, "rrd_ul": null, "rrd_r": null, "suburb": null, "school_name": null, "resp": "SAG" }, "geometry": { "type": "Point", "coordinates": [ 138.685383129000115, -35.019280799999933 ] } },
{ "type": "Feature", "properties": { "site_type": "SC", "site_no": "334", "site_desc": "Botany Drive \/N of Bicentennial Drive, Golden Grove, Golden Grove Primary", "road_no": null, "rrd_ul": null, "rrd_r": null, "suburb": null, "school_name": null, "resp": "LGA" }, "geometry": { "type": "Point", "coordinates": [ 138.7079182760001, -34.786851489999947 ] } },
{ "type": "Feature", "properties": { "site_type": "SC", "site_no": "312", "site_desc": "Gilles Road \/W of Pridmore Street, Glen Osmond, Seymour Junior College", "road_no": null, "rrd_ul": null, "rrd_r": null, "suburb": null, "school_name": null, "resp": "LGA" }, "geometry": { "type": "Point", "coordinates": [ 138.645634195000071, -34.957439572999931 ] } },
{ "type": "Feature", "properties": { "site_type": "SC", "site_no": "353", "site_desc": "Main Rd\/300m N Station Rd, Willunga, Willunga High School", "road_no": null, "rrd_ul": null, "rrd_r": null, "suburb": null, "school_name": null, "resp": "SAG" }, "geometry": { "type": "Point", "coordinates": [ 138.553834855000105, -35.266182803999982 ] } },
{ "type": "Feature", "properties": { "site_type": "SC", "site_no": "370", "site_desc": "Mt Burr Rd \/ East of Princes Hwy, Millicent, Millicent High School", "road_no": null, "rrd_ul": null, "rrd_r": null, "suburb": null, "school_name": null, "resp": "SAG" }, "geometry": { "type": "Point", "coordinates": [ 140.355496801000072, -37.590959408999936 ] } },
{ "type": "Feature", "properties": { "site_type": "SC", "site_no": "372", "site_desc": "Flinders Hwy\/450m W of Beach Tce, Elliston, Elliston Area School", "road_no": null, "rrd_ul": null, "rrd_r": null, "suburb": null, "school_name": null, "resp": "SAG" }, "geometry": { "type": "Point", "coordinates": [ 134.891293672000074, -33.644597417999933 ] } },
{ "type": "Feature", "properties": { "site_type": "SC", "site_no": "428", "site_desc": "Echunga Rd \/140m N of Aldgate-Strathalbyn Rd, Echunga, Echunga Primary School", "road_no": null, "rrd_ul": null, "rrd_r": null, "suburb": null, "school_name": null, "resp": "SAG" }, "geometry": { "type": "Point", "coordinates": [ 138.791902141000037, -35.097575504999952 ] } },
{ "type": "Feature", "properties": { "site_type": "SC", "site_no": "420", "site_desc": "Queen St North of William St, St Ignatius College Junior Primary", "road_no": null, "rrd_ul": null, "rrd_r": null, "suburb": null, "school_name": null, "resp": "LGA" }, "geometry": { "type": "Point", "coordinates": [ 138.638947518, -34.922978393999983 ] } },
{ "type": "Feature", "properties": { "site_type": "SC", "site_no": "374", "site_desc": "Riddoch Hwy\/115m S of Bryan St, Allendale East, Allendale East Primary School", "road_no": null, "rrd_ul": null, "rrd_r": null, "suburb": null, "school_name": null, "resp": "SAG" }, "geometry": { "type": "Point", "coordinates": [ 140.709362394000095, -38.002927012999976 ] } },
{ "type": "Feature", "properties": { "site_type": "SC", "site_no": "422", "site_desc": "Young St near Castle St for Parkside Primary School", "road_no": null, "rrd_ul": null, "rrd_r": null, "suburb": null, "school_name": null, "resp": "LGA" }, "geometry": { "type": "Point", "coordinates": [ 138.618934963000015, -34.94392135399994 ] } },
{ "type": "Feature", "properties": { "site_type": "SC", "site_no": "423", "site_desc": "Robsart St near Castle St for Parkside Primary School", "road_no": null, "rrd_ul": null, "rrd_r": null, "suburb": null, "school_name": null, "resp": "LGA" }, "geometry": { "type": "Point", "coordinates": [ 138.619319794000035, -34.944953133999945 ] } },
{ "type": "Feature", "properties": { "site_type": "SC", "site_no": "367", "site_desc": "Mt Burr Rd\/80m W of Brown St, Mt Burr, Mt Burr Primary School", "road_no": null, "rrd_ul": null, "rrd_r": null, "suburb": null, "school_name": null, "resp": "SAG" }, "geometry": { "type": "Point", "coordinates": [ 140.459128173000067, -37.542015755999955 ] } },
{ "type": "Feature", "properties": { "site_type": "SC", "site_no": "355", "site_desc": "McLaren Vale - Willunga, McLaren Vale, McLaren Vale Primary", "road_no": null, "rrd_ul": null, "rrd_r": null, "suburb": null, "school_name": null, "resp": "SAG" }, "geometry": { "type": "Point", "coordinates": [ 138.532827892000114, -35.211599609999951 ] } },
{ "type": "Feature", "properties": { "site_type": "SC", "site_no": "408", "site_desc": "Main Rd Willinga, Willunga Primary School", "road_no": null, "rrd_ul": null, "rrd_r": null, "suburb": null, "school_name": null, "resp": "SAG" }, "geometry": { "type": "Point", "coordinates": [ 138.554061911000076, -35.269363747999932 ] } },
{ "type": "Feature", "properties": { "site_type": "SC", "site_no": "429", "site_desc": "McLaren Flat Rd\/200m W of Kangarilla Rd, Kangarilla, Kangarilla Primary School", "road_no": null, "rrd_ul": null, "rrd_r": null, "suburb": null, "school_name": null, "resp": "SAG" }, "geometry": { "type": "Point", "coordinates": [ 138.659389893000025, -35.148487368999952 ] } },
{ "type": "Feature", "properties": { "site_type": "SC", "site_no": "435", "site_desc": "St Josephs Memorial school on William St", "road_no": null, "rrd_ul": null, "rrd_r": null, "suburb": null, "school_name": null, "resp": "LGA" }, "geometry": { "type": "Point", "coordinates": [ 138.640638577000118, -34.923984515999962 ] } },
{ "type": "Feature", "properties": { "site_type": "SC", "site_no": "376", "site_desc": "Miller St \/22M North of William St, Springton, Springton Primary School", "road_no": null, "rrd_ul": null, "rrd_r": null, "suburb": null, "school_name": null, "resp": "SAG" }, "geometry": { "type": "Point", "coordinates": [ 139.089355304000037, -34.707160679999959 ] } },
{ "type": "Feature", "properties": { "site_type": "SC", "site_no": "427", "site_desc": "Mawson Rd (Meadows Primary School)", "road_no": null, "rrd_ul": null, "rrd_r": null, "suburb": null, "school_name": null, "resp": "SAG" }, "geometry": { "type": "Point", "coordinates": [ 138.76152602600007, -35.181089848999932 ] } },
{ "type": "Feature", "properties": { "site_type": "SC", "site_no": "316", "site_desc": "Kohinoor Road \/W of Centenary Avenue, Kingscote, Kingscote Area", "road_no": null, "rrd_ul": null, "rrd_r": null, "suburb": null, "school_name": null, "resp": "SAG" }, "geometry": { "type": "Point", "coordinates": [ 137.633931037000025, -35.652929696999934 ] } },
{ "type": "Feature", "properties": { "site_type": "SC", "site_no": "287", "site_desc": "Barretts Road \/W of Mortlock Street, Clapham, Clapham Primary", "road_no": null, "rrd_ul": null, "rrd_r": null, "suburb": null, "school_name": null, "resp": "LGA" }, "geometry": { "type": "Point", "coordinates": [ 138.604043294000121, -34.994050861999938 ] } },
{ "type": "Feature", "properties": { "site_type": "SC", "site_no": "424", "site_desc": "Ronaldo Way for Setlers Farm Campus Pmy Sch", "road_no": null, "rrd_ul": null, "rrd_r": null, "suburb": null, "school_name": null, "resp": "LGA" }, "geometry": { "type": "Point", "coordinates": [ 138.5958957900001, -34.757651411999973 ] } },
{ "type": "Feature", "properties": { "site_type": "SC", "site_no": "263", "site_desc": "Marlborough Street \/E of Northey Street, Henley Beach, Fulham Gardens Primary", "road_no": null, "rrd_ul": null, "rrd_r": null, "suburb": null, "school_name": null, "resp": "LGA" }, "geometry": { "type": "Point", "coordinates": [ 138.503332129000114, -34.913422423999975 ] } },
{ "type": "Feature", "properties": { "site_type": "SC", "site_no": "437", "site_desc": "Hemming St for The Pines Primary School", "road_no": null, "rrd_ul": null, "rrd_r": null, "suburb": null, "school_name": null, "resp": "LGA" }, "geometry": { "type": "Point", "coordinates": [ 138.60890315100005, -34.773224304999928 ] } },
{ "type": "Feature", "properties": { "site_type": "SC", "site_no": "438", "site_desc": "Oxford Tce \/ St Joseph's School", "road_no": null, "rrd_ul": null, "rrd_r": null, "suburb": null, "school_name": null, "resp": "LGA" }, "geometry": { "type": "Point", "coordinates": [ 135.853808984000011, -34.727095840999937 ] } },
{ "type": "Feature", "properties": { "site_type": "SC", "site_no": "417", "site_desc": "Kersbrook Rd South of Bowden St, Kersbrook Primary School", "road_no": null, "rrd_ul": null, "rrd_r": null, "suburb": null, "school_name": null, "resp": "SAG" }, "geometry": { "type": "Point", "coordinates": [ 138.850679354000022, -34.782154332999937 ] } },
{ "type": "Feature", "properties": { "site_type": "SC", "site_no": "436", "site_desc": "Pimpala Rd near Prescott College Southern", "road_no": null, "rrd_ul": null, "rrd_r": null, "suburb": null, "school_name": null, "resp": "LGA" }, "geometry": { "type": "Point", "coordinates": [ 138.543581476000099, -35.104223399999967 ] } },
{ "type": "Feature", "properties": { "site_type": "SC", "site_no": "442", "site_desc": "Jane St \/ South Port Primary", "road_no": null, "rrd_ul": null, "rrd_r": null, "suburb": null, "school_name": null, "resp": "LGA" }, "geometry": { "type": "Point", "coordinates": [ 138.473260959000072, -35.175566107999941 ] } },
{ "type": "Feature", "properties": { "site_type": "SC", "site_no": "440", "site_desc": "Glynville Dr \/ HACKHAM WEST PRIMARY", "road_no": null, "rrd_ul": null, "rrd_r": null, "suburb": null, "school_name": null, "resp": "LGA" }, "geometry": { "type": "Point", "coordinates": [ 138.516842497000084, -35.143091564999963 ] } },
{ "type": "Feature", "properties": { "site_type": "SC", "site_no": "433", "site_desc": "Grand Bvd \/ near Corsar Ct", "road_no": null, "rrd_ul": null, "rrd_r": null, "suburb": null, "school_name": null, "resp": "LGA" }, "geometry": { "type": "Point", "coordinates": [ 138.486998670000048, -35.200298809999936 ] } },
{ "type": "Feature", "properties": { "site_type": "SC", "site_no": "433", "site_desc": "Grand Bvd \/ near Corsar Ct", "road_no": null, "rrd_ul": null, "rrd_r": null, "suburb": null, "school_name": null, "resp": "LGA" }, "geometry": { "type": "Point", "coordinates": [ 138.486908364000101, -35.200335385999949 ] } },
{ "type": "Feature", "properties": { "site_type": "SC", "site_no": "441", "site_desc": "Barwell Rd 70m east of Anstey Crescent", "road_no": null, "rrd_ul": null, "rrd_r": null, "suburb": null, "school_name": null, "resp": "LGA" }, "geometry": { "type": "Point", "coordinates": [ 138.567405568000027, -34.946631002999936 ] } },
{ "type": "Feature", "properties": { "site_type": "SC", "site_no": "443", "site_desc": "Grand Bvd Left Cwy \/ NAME\tAll Saints Catholic Primary School", "road_no": null, "rrd_ul": null, "rrd_r": null, "suburb": null, "school_name": null, "resp": "LGA" }, "geometry": { "type": "Point", "coordinates": [ 138.481121790000088, -35.184332592999965 ] } },
{ "type": "Feature", "properties": { "site_type": "SC", "site_no": "443", "site_desc": "Grand Bvd Left Cwy \/ NAME\tAll Saints Catholic Primary School", "road_no": null, "rrd_ul": null, "rrd_r": null, "suburb": null, "school_name": null, "resp": "LGA" }, "geometry": { "type": "Point", "coordinates": [ 138.481222278000018, -35.184351253999978 ] } },
{ "type": "Feature", "properties": { "site_type": "SC", "site_no": "445", "site_desc": "King George Ave \/ 180m north of King St", "road_no": null, "rrd_ul": null, "rrd_r": null, "suburb": null, "school_name": null, "resp": "LGA" }, "geometry": { "type": "Point", "coordinates": [ 138.518870344000106, -35.011976287999971 ] } },
{ "type": "Feature", "properties": { "site_type": "SC", "site_no": "444", "site_desc": "Errington St for Errington School", "road_no": null, "rrd_ul": null, "rrd_r": null, "suburb": null, "school_name": null, "resp": "LGA" }, "geometry": { "type": "Point", "coordinates": [ 138.547963924000101, -34.962095350999959 ] } },
{ "type": "Feature", "properties": { "site_type": "SC", "site_no": "447", "site_desc": "West Parkway near Windsor Av - Colonel Light Gardens Primary School", "road_no": null, "rrd_ul": null, "rrd_r": null, "suburb": null, "school_name": null, "resp": "LGA" }, "geometry": { "type": "Point", "coordinates": [ 138.59422122400008, -34.986824468999941 ] } },
{ "type": "Feature", "properties": { "site_type": null, "site_no": null, "site_desc": null, "road_no": null, "rrd_ul": null, "rrd_r": null, "suburb": null, "school_name": null, "resp": "OTH" }, "geometry": { "type": "Point", "coordinates": [ 138.674800923000021, -34.896120918999941 ] } },
{ "type": "Feature", "properties": { "site_type": "SC", "site_no": "452", "site_desc": "Galloway Rd \/ Southern Montessori School", "road_no": null, "rrd_ul": null, "rrd_r": null, "suburb": null, "school_name": null, "resp": "LGA" }, "geometry": { "type": "Point", "coordinates": [ 138.478813672000115, -35.124242233999951 ] } },
{ "type": "Feature", "properties": { "site_type": "SC", "site_no": "453", "site_desc": "Audley St near Adit St - Ngutu College", "road_no": null, "rrd_ul": null, "rrd_r": null, "suburb": null, "school_name": null, "resp": "LGA" }, "geometry": { "type": "Point", "coordinates": [ 138.538224267000032, -34.866363282999941 ] } },
{ "type": "Feature", "properties": { "site_type": "SC", "site_no": "002", "site_desc": "George Main Road \/E of Oval Park Drive, Victor Harbor, Glendale Christian", "road_no": null, "rrd_ul": null, "rrd_r": null, "suburb": null, "school_name": null, "resp": "SAG" }, "geometry": { "type": "Point", "coordinates": [ 138.610811025000089, -35.556698390999941 ] } }
]
}
