{
"type": "FeatureCollection",
"name": "SchoolCrossings_GDA94",
"crs": { "type": "name", "properties": { "name": "urn:ogc:def:crs:EPSG::4283" } },
"features": [
{ "type": "Feature", "properties": { "site_type": "SC", "site_no": "399", "site_desc": "Lynton Tce - Approx. 130m East of Grand Bvd, Seaford, Seaford Secondary College", "road_no": null, "rrd_ul": null, "rrd_r": null, "suburb": null, "school_name": null, "resp": "LGA" }, "geometry": { "type": "Point", "coordinates": [ 138.482356870000103, -35.188350861999936 ] } },
{ "type": "Feature", "properties": { "site_type": "SC", "site_no": "3210", "site_desc": "East Tce near Wakefield St, Adelaide, Christian Brothers Junior College", "road_no": null, "rrd_ul": null, "rrd_r": null, "suburb": null, "school_name": null, "resp": "LGA" }, "geometry": { "type": "Point", "coordinates": [ 138.613756241000033, -34.92754086399998 ] } },
{ "type": "Feature", "properties": { "site_type": "SC", "site_no": "295", "site_desc": "East Terrace \/N of MacDonnell Street, Kingston S.E., Kingston Area School", "road_no": null, "rrd_ul": null, "rrd_r": null, "suburb": null, "school_name": null, "resp": "SAG" }, "geometry": { "type": "Point", "coordinates": [ 139.856137601000114, -36.835272214999975 ] } },
{ "type": "Feature", "properties": { "site_type": "SC", "site_no": "421", "site_desc": "Gawler Rd West of Rowe Crs, Two Wells Primary School", "road_no": null, "rrd_ul": null, "rrd_r": null, "suburb": null, "school_name": null, "resp": "SAG" }, "geometry": { "type": "Point", "coordinates": [ 138.517304541000044, -34.592708985999934 ] } },
{ "type": "Feature", "properties": { "site_type": "SC", "site_no": "416", "site_desc": "Hamilton Rd for Fairview Park Primary School", "road_no": null, "rrd_ul": null, "rrd_r": null, "suburb": null, "school_name": null, "resp": "LGA" }, "geometry": { "type": "Point", "coordinates": [ 138.729218771000092, -34.797468919999972 ] } },
{ "type": "Feature", "properties": { "site_type": "SC", "site_no": "299", "site_desc": "Gledsdale Road \/E of Sandison Road, Hallett Cove, Hallett Cove Primary", "road_no": null, "rrd_ul": null, "rrd_r": null, "suburb": null, "school_name": null, "resp": "LGA" }, "geometry": { "type": "Point", "coordinates": [ 138.511033731000111, -35.077562093999973 ] } },
{ "type": "Feature", "properties": { "site_type": "SC", "site_no": "365", "site_desc": "Kangarilla Rd RN4621 \/ Rose Cres, McLaren Flat, McLaren Flat Primary", "road_no": null, "rrd_ul": null, "rrd_r": null, "suburb": null, "school_name": null, "resp": "SAG" }, "geometry": { "type": "Point", "coordinates": [ 138.587275880000107, -35.20669750899998 ] } },
{ "type": "Feature", "properties": { "site_type": "SC", "site_no": "431", "site_desc": "Dunrobin Rd, Warradale,Christ The King School", "road_no": null, "rrd_ul": null, "rrd_r": null, "suburb": null, "school_name": null, "resp": "LGA" }, "geometry": { "type": "Point", "coordinates": [ 138.537855805000049, -35.009175669999934 ] } },
{ "type": "Feature", "properties": { "site_type": "SC", "site_no": "398", "site_desc": "Adams Rd - 231m SW of Craigmore Rd, Playford Primary School", "road_no": null, "rrd_ul": null, "rrd_r": null, "suburb": null, "school_name": null, "resp": "LGA" }, "geometry": { "type": "Point", "coordinates": [ 138.71190540200007, -34.688368086999958 ] } },
{ "type": "Feature", "properties": { "site_type": "SC", "site_no": "409", "site_desc": "Edward Beck Dr, Woodend Primary School", "road_no": null, "rrd_ul": null, "rrd_r": null, "suburb": null, "school_name": null, "resp": "LGA" }, "geometry": { "type": "Point", "coordinates": [ 138.535564021000027, -35.07893327499994 ] } },
{ "type": "Feature", "properties": { "site_type": "SC", "site_no": "317", "site_desc": "Blanche Terrace \/SW of Robert Street, Moonta, Moonta Area School", "road_no": null, "rrd_ul": null, "rrd_r": null, "suburb": null, "school_name": null, "resp": "SAG" }, "geometry": { "type": "Point", "coordinates": [ 137.591356152000117, -34.070064169999966 ] } },
{ "type": "Feature", "properties": { "site_type": "SC", "site_no": "414", "site_desc": "Somerset Grove, Playford Primary School", "road_no": null, "rrd_ul": null, "rrd_r": null, "suburb": null, "school_name": null, "resp": "LGA" }, "geometry": { "type": "Point", "coordinates": [ 138.71462714900008, -34.689761567999938 ] } },
{ "type": "Feature", "properties": { "site_type": "SC", "site_no": "401", "site_desc": "Dumas St - 136m NE of Apollo St, Mt Barker Primary School", "road_no": null, "rrd_ul": null, "rrd_r": null, "suburb": null, "school_name": null, "resp": "LGA" }, "geometry": { "type": "Point", "coordinates": [ 138.854535279000061, -35.068281296999942 ] } },
{ "type": "Feature", "properties": { "site_type": "SC", "site_no": "419", "site_desc": "Richardson Drive East of Sunnybrook Dr, Wynn Vale School", "road_no": null, "rrd_ul": null, "rrd_r": null, "suburb": null, "school_name": null, "resp": "LGA" }, "geometry": { "type": "Point", "coordinates": [ 138.688849846000039, -34.801236002999929 ] } },
{ "type": "Feature", "properties": { "site_type": "SC", "site_no": "397", "site_desc": "Adams Rd - 192m NE of Zurich Rd, Playford Primary School", "road_no": null, "rrd_ul": null, "rrd_r": null, "suburb": null, "school_name": null, "resp": "LGA" }, "geometry": { "type": "Point", "coordinates": [ 138.711290767000037, -34.689330753999968 ] } },
{ "type": "Feature", "properties": { "site_type": "SC", "site_no": "410", "site_desc": "Caffery St, McLaren Vale, McLaren Vale Primary School", "road_no": null, "rrd_ul": null, "rrd_r": null, "suburb": null, "school_name": null, "resp": "LGA" }, "geometry": { "type": "Point", "coordinates": [ 138.530355076000092, -35.21212103199997 ] } },
{ "type": "Feature", "properties": { "site_type": "SC", "site_no": "411", "site_desc": "Liguria Crs. Noarlunga Downs, Noarlunga Downs Primary School", "road_no": null, "rrd_ul": null, "rrd_r": null, "suburb": null, "school_name": null, "resp": "LGA" }, "geometry": { "type": "Point", "coordinates": [ 138.498117549000085, -35.15152454899993 ] } },
{ "type": "Feature", "properties": { "site_type": "SC", "site_no": "296", "site_desc": "Quinliven Road \/W of Holden Street, Aldinga, Aldinga Primary", "road_no": null, "rrd_ul": null, "rrd_r": null, "suburb": null, "school_name": null, "resp": "LGA" }, "geometry": { "type": "Point", "coordinates": [ 138.462173767000081, -35.268396993999943 ] } },
{ "type": "Feature", "properties": { "site_type": "SC", "site_no": "308", "site_desc": "Melsetter road \/N of Melfort Road, Hackham West, Hackham South Primary", "road_no": null, "rrd_ul": null, "rrd_r": null, "suburb": null, "school_name": null, "resp": "LGA" }, "geometry": { "type": "Point", "coordinates": [ 138.516288250000116, -35.153068209999958 ] } },
{ "type": "Feature", "properties": { "site_type": "SC", "site_no": "389", "site_desc": "Cadell St \/ Glendale Gr, Goolwa, Investigator College", "road_no": null, "rrd_ul": null, "rrd_r": null, "suburb": null, "school_name": null, "resp": "SAG" }, "geometry": { "type": "Point", "coordinates": [ 138.778436135000106, -35.496207439999978 ] } },
{ "type": "Feature", "properties": { "site_type": "SC", "site_no": "294", "site_desc": "Hub Drive \/S of Maralyn Close, Aberfoyle Park, Aberfoyle Hub", "road_no": null, "rrd_ul": null, "rrd_r": null, "suburb": null, "school_name": null, "resp": "LGA" }, "geometry": { "type": "Point", "coordinates": [ 138.590636398000015, -35.079576827999972 ] } },
{ "type": "Feature", "properties": { "site_type": "SC", "site_no": "393", "site_desc": "Bains Rd (Approx 50m West of Emmerson Rd), Morphett Vale, Woodcroft College", "road_no": null, "rrd_ul": null, "rrd_r": null, "suburb": null, "school_name": null, "resp": "LGA" }, "geometry": { "type": "Point", "coordinates": [ 138.543751704000101, -35.114727209999955 ] } },
{ "type": "Feature", "properties": { "site_type": "SC", "site_no": "318", "site_desc": "Education Road \/N of Devon Crescent, Happy Valley, Happy Valley Primary", "road_no": null, "rrd_ul": null, "rrd_r": null, "suburb": null, "school_name": null, "resp": "LGA" }, "geometry": { "type": "Point", "coordinates": [ 138.584544855000104, -35.087024360999976 ] } },
{ "type": "Feature", "properties": { "site_type": "SC", "site_no": "396", "site_desc": "Mildred St - 108m NW of High St", "road_no": null, "rrd_ul": null, "rrd_r": null, "suburb": null, "school_name": null, "resp": "SAG" }, "geometry": { "type": "Point", "coordinates": [ 138.917257109000047, -34.337549701999933 ] } },
{ "type": "Feature", "properties": { "site_type": "SC", "site_no": "402", "site_desc": "Quinliven Rd - 63m East of Bowering Hill Rd, Aldinga Payinthi College", "road_no": null, "rrd_ul": null, "rrd_r": null, "suburb": null, "school_name": null, "resp": "LGA" }, "geometry": { "type": "Point", "coordinates": [ 138.471957278000104, -35.267889855999954 ] } },
{ "type": "Feature", "properties": { "site_type": "SC", "site_no": "406", "site_desc": "Park Lake Bvd, Blakeview Primary School", "road_no": null, "rrd_ul": null, "rrd_r": null, "suburb": null, "school_name": null, "resp": "LGA" }, "geometry": { "type": "Point", "coordinates": [ 138.698674666000102, -34.686856769999963 ] } },
{ "type": "Feature", "properties": { "site_type": "SC", "site_no": "405", "site_desc": "Lincoln Hwy, East of Cooper St, Cowell  Area School", "road_no": null, "rrd_ul": null, "rrd_r": null, "suburb": null, "school_name": null, "resp": "SAG" }, "geometry": { "type": "Point", "coordinates": [ 136.919508161000067, -33.681996969999943 ] } },
{ "type": "Feature", "properties": { "site_type": "SC", "site_no": "407", "site_desc": "Fosters Rd, Cedar College at Northgate", "road_no": null, "rrd_ul": null, "rrd_r": null, "suburb": null, "school_name": null, "resp": "SAG" }, "geometry": { "type": "Point", "coordinates": [ 138.635861113000033, -34.855129394999949 ] } },
{ "type": "Feature", "properties": { "site_type": "SC", "site_no": "395", "site_desc": "Douglas Drive \/ Roberts st, Munno Para West, Mark Oliphant", "road_no": null, "rrd_ul": null, "rrd_r": null, "suburb": null, "school_name": null, "resp": "LGA" }, "geometry": { "type": "Point", "coordinates": [ 138.68572310400009, -34.665875491999941 ] } },
{ "type": "Feature", "properties": { "site_type": "SC", "site_no": "391", "site_desc": "Newton Bvd \/ Faulding Av, Munno Para West, Mark Oliphant", "road_no": null, "rrd_ul": null, "rrd_r": null, "suburb": null, "school_name": null, "resp": "LGA" }, "geometry": { "type": "Point", "coordinates": [ 138.684148830000026, -34.66673063099995 ] } },
{ "type": "Feature", "properties": { "site_type": "SC", "site_no": "384", "site_desc": "Wells Rd - 200m West of Fleming Ave, Streaky Bay, Streaky Bay Area School", "road_no": null, "rrd_ul": null, "rrd_r": null, "suburb": null, "school_name": null, "resp": "LGA" }, "geometry": { "type": "Point", "coordinates": [ 134.201646871000094, -32.797385448999933 ] } },
{ "type": "Feature", "properties": { "site_type": "SC", "site_no": "386", "site_desc": "Brunel Dr\/Roebling St, Modbury Heights, The Heights School", "road_no": null, "rrd_ul": null, "rrd_r": null, "suburb": null, "school_name": null, "resp": "LGA" }, "geometry": { "type": "Point", "coordinates": [ 138.684111141000017, -34.810217838999961 ] } },
{ "type": "Feature", "properties": { "site_type": "SC", "site_no": "390", "site_desc": "Garned Tce \/ 15m South of Station Lane, Mawson Lakes, Mawson Lakes Primary School", "road_no": null, "rrd_ul": null, "rrd_r": null, "suburb": null, "school_name": null, "resp": "LGA" }, "geometry": { "type": "Point", "coordinates": [ 138.61491835400011, -34.808818590999977 ] } },
{ "type": "Feature", "properties": { "site_type": "SC", "site_no": "349", "site_desc": "Coalville Tce\/240m S of South Tce, Bordertown, Bordertown High School", "road_no": null, "rrd_ul": null, "rrd_r": null, "suburb": null, "school_name": null, "resp": "SAG" }, "geometry": { "type": "Point", "coordinates": [ 140.771327638000116, -36.31483970599993 ] } },
{ "type": "Feature", "properties": { "site_type": "SC", "site_no": "404", "site_desc": "Investigator Dr - Woodcroft Primary School", "road_no": null, "rrd_ul": null, "rrd_r": null, "suburb": null, "school_name": null, "resp": "LGA" }, "geometry": { "type": "Point", "coordinates": [ 138.556836145000034, -35.106957449999982 ] } },
{ "type": "Feature", "properties": { "site_type": "SC", "site_no": "392", "site_desc": "Davoren Rd-100m West of Peachey Rd, Davoren Park, Smithfield Plains Super School", "road_no": null, "rrd_ul": null, "rrd_r": null, "suburb": null, "school_name": null, "resp": "LGA" }, "geometry": { "type": "Point", "coordinates": [ 138.672050550000108, -34.680718586999944 ] } },
{ "type": "Feature", "properties": { "site_type": "SC", "site_no": "388", "site_desc": "Albert St\/Wellbourne St, Mitcham, Scotch Junior College", "road_no": null, "rrd_ul": null, "rrd_r": null, "suburb": null, "school_name": null, "resp": "LGA" }, "geometry": { "type": "Point", "coordinates": [ 138.62170264000008, -34.97914721099994 ] } },
{ "type": "Feature", "properties": { "site_type": "SC", "site_no": "415", "site_desc": "Fradd Rd - 110m east of Heaslip Rd, Angle Vale Primary School", "road_no": null, "rrd_ul": null, "rrd_r": null, "suburb": null, "school_name": null, "resp": "LGA" }, "geometry": { "type": "Point", "coordinates": [ 138.647462138000037, -34.644071629999928 ] } },
{ "type": "Feature", "properties": { "site_type": "SC", "site_no": "001", "site_desc": "Main Road at Primary School, Coromandel Valley, Coromandel Valley Primary", "road_no": null, "rrd_ul": null, "rrd_r": null, "suburb": null, "school_name": null, "resp": "SAG" }, "geometry": { "type": "Point", "coordinates": [ 138.625174831000095, -35.032522726999957 ] } },
{ "type": "Feature", "properties": { "site_type": "SC", "site_no": "244", "site_desc": "Goodman Road \/N of Chivell Street, Elizabeth South, Elizabeth South Primary", "road_no": null, "rrd_ul": null, "rrd_r": null, "suburb": null, "school_name": null, "resp": "LGA" }, "geometry": { "type": "Point", "coordinates": [ 138.660278968000057, -34.730531337999935 ] } },
{ "type": "Feature", "properties": { "site_type": "SC", "site_no": "226", "site_desc": "Collins Parade \/S of Paramount Avenue, Hackham, Hackham East Primary", "road_no": null, "rrd_ul": null, "rrd_r": null, "suburb": null, "school_name": null, "resp": "LGA" }, "geometry": { "type": "Point", "coordinates": [ 138.533060322000097, -35.13987943799998 ] } },
{ "type": "Feature", "properties": { "site_type": "SC", "site_no": "345", "site_desc": "Hart Rd\/38m E of Freer St, Semaphore South, Le Fevre High School", "road_no": null, "rrd_ul": null, "rrd_r": null, "suburb": null, "school_name": null, "resp": "SAG" }, "geometry": { "type": "Point", "coordinates": [ 138.485524720000058, -34.844976363999933 ] } },
{ "type": "Feature", "properties": { "site_type": "SC", "site_no": "087", "site_desc": "Thomas Street \/E of Marion Road, South Plympton, Forbes Primary", "road_no": null, "rrd_ul": null, "rrd_r": null, "suburb": null, "school_name": null, "resp": "LGA" }, "geometry": { "type": "Point", "coordinates": [ 138.55756167800007, -34.97715292099997 ] } },
{ "type": "Feature", "properties": { "site_type": "SC", "site_no": "385", "site_desc": "Lawrie Tce-60m east of Cates St, Waikerie, Waikerie PS", "road_no": null, "rrd_ul": null, "rrd_r": null, "suburb": null, "school_name": null, "resp": "SAG" }, "geometry": { "type": "Point", "coordinates": [ 139.98199747600006, -34.182120192999946 ] } },
{ "type": "Feature", "properties": { "site_type": "SC", "site_no": "057", "site_desc": "Fairfield Road \/SE of Murphy Street, Elizabeth Grove, St Mary Magdalene", "road_no": null, "rrd_ul": null, "rrd_r": null, "suburb": null, "school_name": null, "resp": "LGA" }, "geometry": { "type": "Point", "coordinates": [ 138.665964282000118, -34.734509116999959 ] } },
{ "type": "Feature", "properties": { "site_type": "SC", "site_no": "058", "site_desc": "John Rice Service Road \/E of Wincklebury Road, Elizabeth Vale, Elizabeth Vale Primary", "road_no": null, "rrd_ul": null, "rrd_r": null, "suburb": null, "school_name": null, "resp": "SAG" }, "geometry": { "type": "Point", "coordinates": [ 138.669699451000042, -34.748047688999975 ] } },
{ "type": "Feature", "properties": { "site_type": "SC", "site_no": "089", "site_desc": "Mount Gambier Road \/NW of Bridges Street, Millicent, Millicent South Primary", "road_no": null, "rrd_ul": null, "rrd_r": null, "suburb": null, "school_name": null, "resp": "SAG" }, "geometry": { "type": "Point", "coordinates": [ 140.363715079000031, -37.60690675099994 ] } },
{ "type": "Feature", "properties": { "site_type": "SC", "site_no": "093", "site_desc": "Edward Street \/W of Maria Street, Melrose Park, Edwardstown Primary", "road_no": null, "rrd_ul": null, "rrd_r": null, "suburb": null, "school_name": null, "resp": "LGA" }, "geometry": { "type": "Point", "coordinates": [ 138.578570429000024, -34.977896684999962 ] } },
{ "type": "Feature", "properties": { "site_type": "SC", "site_no": "432", "site_desc": "Grand Bvd \/ Seaford Rise Primary School", "road_no": null, "rrd_ul": null, "rrd_r": null, "suburb": null, "school_name": null, "resp": "LGA" }, "geometry": { "type": "Point", "coordinates": [ 138.486480990000018, -35.199685151999972 ] } },
{ "type": "Feature", "properties": { "site_type": "SC", "site_no": "432", "site_desc": "Grand Bvd \/ Seaford Rise Primary School", "road_no": null, "rrd_ul": null, "rrd_r": null, "suburb": null, "school_name": null, "resp": "LGA" }, "geometry": { "type": "Point", "coordinates": [ 138.486566672000095, -35.19965321199993 ] } },
{ "type": "Feature", "properties": { "site_type": "SC", "site_no": "430", "site_desc": "Young St \/ Woodend Primary School", "road_no": null, "rrd_ul": null, "rrd_r": null, "suburb": null, "school_name": null, "resp": "LGA" }, "geometry": { "type": "Point", "coordinates": [ 138.53673957, -35.079199550999931 ] } },
{ "type": "Feature", "properties": { "site_type": "SC", "site_no": "371", "site_desc": "Ridge Tce\/54m W of George St, Millicent, Millicent Nth Kindergarden", "road_no": null, "rrd_ul": null, "rrd_r": null, "suburb": null, "school_name": null, "resp": "SAG" }, "geometry": { "type": "Point", "coordinates": [ 140.348317390000034, -37.593435750999959 ] } },
{ "type": "Feature", "properties": { "site_type": "SC", "site_no": "251", "site_desc": "Shipsters Road \/S of Regent Street, Kensington, Marryatville Primary", "road_no": null, "rrd_ul": null, "rrd_r": null, "suburb": null, "school_name": null, "resp": "LGA" }, "geometry": { "type": "Point", "coordinates": [ 138.650095954000108, -34.924920622999934 ] } },
{ "type": "Feature", "properties": { "site_type": "SC", "site_no": "027", "site_desc": "The Parade \/W of Yeronga Avenue, Kensington Park, Pembroke College", "road_no": null, "rrd_ul": null, "rrd_r": null, "suburb": null, "school_name": null, "resp": "LGA" }, "geometry": { "type": "Point", "coordinates": [ 138.655344948000106, -34.92025522199998 ] } },
{ "type": "Feature", "properties": { "site_type": "SC", "site_no": "342", "site_desc": "Moules Road \/E of Davenport Terrace, Rostrevor, Norwood Morialta High", "road_no": null, "rrd_ul": null, "rrd_r": null, "suburb": null, "school_name": null, "resp": "SAG" }, "geometry": { "type": "Point", "coordinates": [ 138.678168533000076, -34.902577988999951 ] } },
{ "type": "Feature", "properties": { "site_type": "SC", "site_no": "346", "site_desc": "Glen Stuart Rd\/32m N of Moules Rd, Woodforde, Rostrevor College", "road_no": null, "rrd_ul": null, "rrd_r": null, "suburb": null, "school_name": null, "resp": "SAG" }, "geometry": { "type": "Point", "coordinates": [ 138.684265787000072, -34.901974674999963 ] } },
{ "type": "Feature", "properties": { "site_type": "SC", "site_no": "219", "site_desc": "Williams Road \/W of North Terrace, Millicent, Millicent North Primary", "road_no": null, "rrd_ul": null, "rrd_r": null, "suburb": null, "school_name": null, "resp": "SAG" }, "geometry": { "type": "Point", "coordinates": [ 140.344944856000097, -37.596358269999939 ] } },
{ "type": "Feature", "properties": { "site_type": "SC", "site_no": "336", "site_desc": "Doswell Tce\/23m E of Draper St, Kadina, Kadina Primary School", "road_no": null, "rrd_ul": null, "rrd_r": null, "suburb": null, "school_name": null, "resp": "LGA" }, "geometry": { "type": "Point", "coordinates": [ 137.711194570000089, -33.96163545 ] } },
{ "type": "Feature", "properties": { "site_type": "SC", "site_no": "006", "site_desc": "Blacks Road \/near Grand Junction Road, Gilles Plains, St Pauls College", "road_no": null, "rrd_ul": null, "rrd_r": null, "suburb": null, "school_name": null, "resp": "LGA" }, "geometry": { "type": "Point", "coordinates": [ 138.653312794000044, -34.846927525999945 ] } },
{ "type": "Feature", "properties": { "site_type": "SC", "site_no": "152", "site_desc": "Williamson Road \/E of Wilkinson Road, Para Hills, Para Hills Primary\/Infant", "road_no": null, "rrd_ul": null, "rrd_r": null, "suburb": null, "school_name": null, "resp": "LGA" }, "geometry": { "type": "Point", "coordinates": [ 138.651211663000026, -34.812925063999955 ] } },
{ "type": "Feature", "properties": { "site_type": "SC", "site_no": "088", "site_desc": "Williams Road \/N of Clinton Street, Millicent, St Anthony's Convent of Mercy", "road_no": null, "rrd_ul": null, "rrd_r": null, "suburb": null, "school_name": null, "resp": "SAG" }, "geometry": { "type": "Point", "coordinates": [ 140.358806299000094, -37.600266198999975 ] } },
{ "type": "Feature", "properties": { "site_type": "SC", "site_no": "245", "site_desc": "Market Street \/N of Mount Pleasant Road, Burra, Burra Community", "road_no": null, "rrd_ul": null, "rrd_r": null, "suburb": null, "school_name": null, "resp": "SAG" }, "geometry": { "type": "Point", "coordinates": [ 138.937425206000057, -33.680328556999939 ] } },
{ "type": "Feature", "properties": { "site_type": "SC", "site_no": "015", "site_desc": "Bevereux Road \/S of Glenroy Avenue, Beaumont, Linden Park Primary", "road_no": null, "rrd_ul": null, "rrd_r": null, "suburb": null, "school_name": null, "resp": "LGA" }, "geometry": { "type": "Point", "coordinates": [ 138.652072232000023, -34.947284405999937 ] } },
{ "type": "Feature", "properties": { "site_type": "SC", "site_no": "150", "site_desc": "South Terrace \/E of Scott Street, Pooraka, Pooraka Primary", "road_no": null, "rrd_ul": null, "rrd_r": null, "suburb": null, "school_name": null, "resp": "LGA" }, "geometry": { "type": "Point", "coordinates": [ 138.613315516000057, -34.832943916999966 ] } },
{ "type": "Feature", "properties": { "site_type": "SC", "site_no": "155", "site_desc": "Elizabeth Street \/S of St Helens Street, Banksia Park, Banksia Park Primary", "road_no": null, "rrd_ul": null, "rrd_r": null, "suburb": null, "school_name": null, "resp": "LGA" }, "geometry": { "type": "Point", "coordinates": [ 138.724235327000088, -34.808661275999953 ] } },
{ "type": "Feature", "properties": { "site_type": "SC", "site_no": "066", "site_desc": "Military Road \/S of Marlborough Street, Henley Beach, Star of the Sea Convent", "road_no": null, "rrd_ul": null, "rrd_r": null, "suburb": null, "school_name": null, "resp": "LGA" }, "geometry": { "type": "Point", "coordinates": [ 138.494133581000028, -34.914458664999984 ] } },
{ "type": "Feature", "properties": { "site_type": "SC", "site_no": "169", "site_desc": "Hawkers Road \/S of Briar Avenue, Medindie, Wilderness Girls", "road_no": null, "rrd_ul": null, "rrd_r": null, "suburb": null, "school_name": null, "resp": "LGA" }, "geometry": { "type": "Point", "coordinates": [ 138.607974939000087, -34.89819526399998 ] } },
{ "type": "Feature", "properties": { "site_type": "SC", "site_no": "126", "site_desc": "Fletcher Road \/S of Hughes Street, Birkenhead, Le Fevre Primary", "road_no": null, "rrd_ul": null, "rrd_r": null, "suburb": null, "school_name": null, "resp": "LGA" }, "geometry": { "type": "Point", "coordinates": [ 138.49800800200012, -34.83837392199996 ] } },
{ "type": "Feature", "properties": { "site_type": "SC", "site_no": "363", "site_desc": "Anzac Rd\/30m S of Swan St, Risdon Park-Pt Pirie, Airdale Primary School", "road_no": null, "rrd_ul": null, "rrd_r": null, "suburb": null, "school_name": null, "resp": "LGA" }, "geometry": { "type": "Point", "coordinates": [ 137.991275426000016, -33.200776829999938 ] } },
{ "type": "Feature", "properties": { "site_type": "SC", "site_no": "331", "site_desc": "Kingston Road \/E of Murdoch Street, Port Pirie, Risdon Park Primary", "road_no": null, "rrd_ul": null, "rrd_r": null, "suburb": null, "school_name": null, "resp": "LGA" }, "geometry": { "type": "Point", "coordinates": [ 138.008772307000072, -33.203976032999947 ] } },
{ "type": "Feature", "properties": { "site_type": "SC", "site_no": "123", "site_desc": "Main Street \/W of Chinner Street, Peterborough, Peterborough Primary", "road_no": null, "rrd_ul": null, "rrd_r": null, "suburb": null, "school_name": null, "resp": "SAG" }, "geometry": { "type": "Point", "coordinates": [ 138.832894192000026, -32.973767805999955 ] } },
{ "type": "Feature", "properties": { "site_type": "SC", "site_no": "257", "site_desc": "Whites Road \/25m S of Opel Avenue, Paralowie, Paralowie Primary", "road_no": null, "rrd_ul": null, "rrd_r": null, "suburb": null, "school_name": null, "resp": "LGA" }, "geometry": { "type": "Point", "coordinates": [ 138.618091160000063, -34.753046144999985 ] } },
{ "type": "Feature", "properties": { "site_type": "SC", "site_no": "290", "site_desc": "Adams Road \/S of Parri Road, Sheidow Park, Sheidow Park Primary", "road_no": null, "rrd_ul": null, "rrd_r": null, "suburb": null, "school_name": null, "resp": "LGA" }, "geometry": { "type": "Point", "coordinates": [ 138.530878123000093, -35.071293837999974 ] } },
{ "type": "Feature", "properties": { "site_type": "SC", "site_no": "137", "site_desc": "Elizabeth Terrace \/E of Paringa Road, Port Augusta, Willsden Primary", "road_no": null, "rrd_ul": null, "rrd_r": null, "suburb": null, "school_name": null, "resp": "LGA" }, "geometry": { "type": "Point", "coordinates": [ 137.779263392000075, -32.505931314999941 ] } },
{ "type": "Feature", "properties": { "site_type": "SC", "site_no": "343", "site_desc": "Gwy Tce\/260m N of Wallace St, Balaklava, Balaklava Primary School", "road_no": null, "rrd_ul": null, "rrd_r": null, "suburb": null, "school_name": null, "resp": "SAG" }, "geometry": { "type": "Point", "coordinates": [ 138.415657074000023, -34.152255201999935 ] } },
{ "type": "Feature", "properties": { "site_type": "SC", "site_no": "360", "site_desc": "Goode Rd\/13m E of Eighth St, Port Pirie West, Port Pirie West Primary School", "road_no": null, "rrd_ul": null, "rrd_r": null, "suburb": null, "school_name": null, "resp": "LGA" }, "geometry": { "type": "Point", "coordinates": [ 138.002693891000035, -33.181280847999972 ] } },
{ "type": "Feature", "properties": { "site_type": "SC", "site_no": "309", "site_desc": "The Terrace \/S of Goode Road, Port Pirie, Port Pirie West Primary", "road_no": null, "rrd_ul": null, "rrd_r": null, "suburb": null, "school_name": null, "resp": "LGA" }, "geometry": { "type": "Point", "coordinates": [ 138.003889857000104, -33.182185322999942 ] } },
{ "type": "Feature", "properties": { "site_type": "SC", "site_no": "304", "site_desc": "Fisher Street \/E of Beaconfield Street, Fullarton, Glen Osmond Primary", "road_no": null, "rrd_ul": null, "rrd_r": null, "suburb": null, "school_name": null, "resp": "LGA" }, "geometry": { "type": "Point", "coordinates": [ 138.636932342000023, -34.956312695999941 ] } },
{ "type": "Feature", "properties": { "site_type": "SC", "site_no": "373", "site_desc": "Eyre Hwy\/50 m W of Penong-Point Sinclair Rd, Penong, Penong Primary School", "road_no": null, "rrd_ul": null, "rrd_r": null, "suburb": null, "school_name": null, "resp": "SAG" }, "geometry": { "type": "Point", "coordinates": [ 133.006284221000101, -31.927892730999929 ] } },
{ "type": "Feature", "properties": { "site_type": "SC", "site_no": "145", "site_desc": "Brown Terace \/N of Orange Avenue, Salisbury, Salisbury Primary", "road_no": null, "rrd_ul": null, "rrd_r": null, "suburb": null, "school_name": null, "resp": "LGA" }, "geometry": { "type": "Point", "coordinates": [ 138.646038155000042, -34.766949852999971 ] } },
{ "type": "Feature", "properties": { "site_type": "SC", "site_no": "328", "site_desc": "Belalie Road \/S of Glenora Drive, Ingle Farm, Ingle Farm Primary", "road_no": null, "rrd_ul": null, "rrd_r": null, "suburb": null, "school_name": null, "resp": "LGA" }, "geometry": { "type": "Point", "coordinates": [ 138.6409297350001, -34.827832139999941 ] } },
{ "type": "Feature", "properties": { "site_type": "SC", "site_no": "008", "site_desc": "Murray Street \/W of Middle Street, Angaston, Angaston Primary", "road_no": null, "rrd_ul": null, "rrd_r": null, "suburb": null, "school_name": null, "resp": "SAG" }, "geometry": { "type": "Point", "coordinates": [ 139.049774792000107, -34.500499342999944 ] } },
{ "type": "Feature", "properties": { "site_type": "SC", "site_no": "034", "site_desc": "Main North Road \/S of Powell Street, Clare, Clare Primary", "road_no": null, "rrd_ul": null, "rrd_r": null, "suburb": null, "school_name": null, "resp": "SAG" }, "geometry": { "type": "Point", "coordinates": [ 138.616547303000061, -33.840862587999936 ] } },
{ "type": "Feature", "properties": { "site_type": "SC", "site_no": "281", "site_desc": "Martins Road \/SW of Universal Road, Salisbury Downs, Salisbury Downs Primary", "road_no": null, "rrd_ul": null, "rrd_r": null, "suburb": null, "school_name": null, "resp": "LGA" }, "geometry": { "type": "Point", "coordinates": [ 138.619807444000116, -34.76884797699995 ] } },
{ "type": "Feature", "properties": { "site_type": "SC", "site_no": "055", "site_desc": "Wandana Avenue \/N of Kopoola Crescent, Gilles Plains, Wandana Primary", "road_no": null, "rrd_ul": null, "rrd_r": null, "suburb": null, "school_name": null, "resp": "LGA" }, "geometry": { "type": "Point", "coordinates": [ 138.660613130000115, -34.849099663999937 ] } },
{ "type": "Feature", "properties": { "site_type": "SC", "site_no": "276", "site_desc": "Stewart Avenue \/N of Field Av, Naracoorte, Naracoorte High", "road_no": null, "rrd_ul": null, "rrd_r": null, "suburb": null, "school_name": null, "resp": "SAG" }, "geometry": { "type": "Point", "coordinates": [ 140.729076835000114, -36.949858070999937 ] } },
{ "type": "Feature", "properties": { "site_type": "SC", "site_no": "333", "site_desc": "Finch Road \/60m W of Hurst Road, Gawler East, Gawler East Primary", "road_no": null, "rrd_ul": null, "rrd_r": null, "suburb": null, "school_name": null, "resp": "LGA" }, "geometry": { "type": "Point", "coordinates": [ 138.761923349000085, -34.597581974999969 ] } },
{ "type": "Feature", "properties": { "site_type": "SC", "site_no": "292", "site_desc": "Fairford Terrace \/N of Teal Grove, Semaphore Park, Semaphore Park Primary", "road_no": null, "rrd_ul": null, "rrd_r": null, "suburb": null, "school_name": null, "resp": "LGA" }, "geometry": { "type": "Point", "coordinates": [ 138.488321253000095, -34.854889645999947 ] } },
{ "type": "Feature", "properties": { "site_type": "SC", "site_no": "364", "site_desc": "Main Nth Rd\/Second St, Gladstone, Gladstone High School", "road_no": null, "rrd_ul": null, "rrd_r": null, "suburb": null, "school_name": null, "resp": "SAG" }, "geometry": { "type": "Point", "coordinates": [ 138.353620624000087, -33.272638430999962 ] } },
{ "type": "Feature", "properties": { "site_type": "SC", "site_no": "325", "site_desc": "Keithcot Farm Drive \/NW of OLeary Place, Wynn Vale, Keithcot Farm Primary", "road_no": null, "rrd_ul": null, "rrd_r": null, "suburb": null, "school_name": null, "resp": "LGA" }, "geometry": { "type": "Point", "coordinates": [ 138.67592310800012, -34.799711073999958 ] } },
{ "type": "Feature", "properties": { "site_type": "SC", "site_no": "356", "site_desc": "Pt Wakefield-Yorketown Rd\/45n W of School Rd, Yorketown, Yorketown Area School", "road_no": null, "rrd_ul": null, "rrd_r": null, "suburb": null, "school_name": null, "resp": "SAG" }, "geometry": { "type": "Point", "coordinates": [ 137.613370512000074, -35.017715012999929 ] } },
{ "type": "Feature", "properties": { "site_type": "SC", "site_no": "067", "site_desc": "Seaview Road \/S of Marlborough Street, Henley Beach, Star of the Sea Convent", "road_no": null, "rrd_ul": null, "rrd_r": null, "suburb": null, "school_name": null, "resp": "SAG" }, "geometry": { "type": "Point", "coordinates": [ 138.492938073000118, -34.914581958999975 ] } },
{ "type": "Feature", "properties": { "site_type": "SC", "site_no": "279", "site_desc": "East Terrace \/N of Rowe Street, Strathalbyn, Strathalbyn Primary", "road_no": null, "rrd_ul": null, "rrd_r": null, "suburb": null, "school_name": null, "resp": "SAG" }, "geometry": { "type": "Point", "coordinates": [ 138.897317871000041, -35.256329798999957 ] } },
{ "type": "Feature", "properties": { "site_type": "SC", "site_no": "339", "site_desc": "The Parkway\/100m S of Field Ave, Victor Harbor, Victor Harbor Primary School", "road_no": null, "rrd_ul": null, "rrd_r": null, "suburb": null, "school_name": null, "resp": "LGA" }, "geometry": { "type": "Point", "coordinates": [ 138.624625113000093, -35.543099167999969 ] } },
{ "type": "Feature", "properties": { "site_type": "SC", "site_no": "073", "site_desc": "Adelaide Street \/E of Walker Avenue, Mannum, Mannum Primary and High", "road_no": null, "rrd_ul": null, "rrd_r": null, "suburb": null, "school_name": null, "resp": "SAG" }, "geometry": { "type": "Point", "coordinates": [ 139.30325992500002, -34.915134351999939 ] } },
{ "type": "Feature", "properties": { "site_type": "SC", "site_no": "268", "site_desc": "Shepherdson Road \/E of White Avenue, Mount Gambier, Tennyson College", "road_no": null, "rrd_ul": null, "rrd_r": null, "suburb": null, "school_name": null, "resp": "LGA" }, "geometry": { "type": "Point", "coordinates": [ 140.755318307000039, -37.827444211999932 ] } },
{ "type": "Feature", "properties": { "site_type": "SC", "site_no": "286", "site_desc": "Frogmore Road \/N of Alfrina Street, Kidman Park, Kidman Park Primary", "road_no": null, "rrd_ul": null, "rrd_r": null, "suburb": null, "school_name": null, "resp": "LGA" }, "geometry": { "type": "Point", "coordinates": [ 138.527700972000048, -34.912836884999933 ] } },
{ "type": "Feature", "properties": { "site_type": "SC", "site_no": "302", "site_desc": "Eyre Avenue \/near Dowd Street, Whyalla, Long Street Primary", "road_no": null, "rrd_ul": null, "rrd_r": null, "suburb": null, "school_name": null, "resp": "LGA" }, "geometry": { "type": "Point", "coordinates": [ 137.531770685000083, -33.038597428999935 ] } },
{ "type": "Feature", "properties": { "site_type": "SC", "site_no": "311", "site_desc": "Halba Crescent \/SW of Otoma Street, Paralowie, Paralowie Primary", "road_no": null, "rrd_ul": null, "rrd_r": null, "suburb": null, "school_name": null, "resp": "LGA" }, "geometry": { "type": "Point", "coordinates": [ 138.623367920000078, -34.753295381999976 ] } },
{ "type": "Feature", "properties": { "site_type": "SC", "site_no": "282", "site_desc": "Wilkinson Road \/NE of Warrigal Street, Para Hills, Para Hills Primary", "road_no": null, "rrd_ul": null, "rrd_r": null, "suburb": null, "school_name": null, "resp": "LGA" }, "geometry": { "type": "Point", "coordinates": [ 138.651187658000026, -34.81164400199998 ] } },
{ "type": "Feature", "properties": { "site_type": "SC", "site_no": "315", "site_desc": "Milne Road \/E of Elizabeth Street, Banksia Park, St Davids Primary", "road_no": null, "rrd_ul": null, "rrd_r": null, "suburb": null, "school_name": null, "resp": "LGA" }, "geometry": { "type": "Point", "coordinates": [ 138.725586551000106, -34.81566344 ] } },
{ "type": "Feature", "properties": { "site_type": "SC", "site_no": "262", "site_desc": "Highfield Avenue \/W of Durham Street, Linden Park, Linden Park Primary", "road_no": null, "rrd_ul": null, "rrd_r": null, "suburb": null, "school_name": null, "resp": "LGA" }, "geometry": { "type": "Point", "coordinates": [ 138.645488320000027, -34.948745318999954 ] } },
{ "type": "Feature", "properties": { "site_type": "SC", "site_no": "136", "site_desc": "Carlton Parade \/N of Rupert Street, Port Augusta, Carlton Primary", "road_no": null, "rrd_ul": null, "rrd_r": null, "suburb": null, "school_name": null, "resp": "LGA" }, "geometry": { "type": "Point", "coordinates": [ 137.777997024000115, -32.489502542999958 ] } },
{ "type": "Feature", "properties": { "site_type": "SC", "site_no": "303", "site_desc": "Yorktown Road \/NE of Ifould Road, Elizabeth Park, St Thomas Mores Parish", "road_no": null, "rrd_ul": null, "rrd_r": null, "suburb": null, "school_name": null, "resp": "SAG" }, "geometry": { "type": "Point", "coordinates": [ 138.681002255000067, -34.715260020999949 ] } },
{ "type": "Feature", "properties": { "site_type": "SC", "site_no": "127", "site_desc": "Fletcher Road \/S of Mooltan Avenue, Largs Bay, Largs Bay Primary", "road_no": null, "rrd_ul": null, "rrd_r": null, "suburb": null, "school_name": null, "resp": "LGA" }, "geometry": { "type": "Point", "coordinates": [ 138.494796987000086, -34.823370276999981 ] } },
{ "type": "Feature", "properties": { "site_type": "SC", "site_no": "352", "site_desc": "Main St \/ 50m East of Oval Rd, Warooka, Warooka Area School", "road_no": null, "rrd_ul": null, "rrd_r": null, "suburb": null, "school_name": null, "resp": "SAG" }, "geometry": { "type": "Point", "coordinates": [ 137.399269170000025, -34.990145388999963 ] } },
{ "type": "Feature", "properties": { "site_type": "SC", "site_no": "273", "site_desc": "Ridge Terrace \/E of Second Street, Millicent, Millicent North Primary", "road_no": null, "rrd_ul": null, "rrd_r": null, "suburb": null, "school_name": null, "resp": "SAG" }, "geometry": { "type": "Point", "coordinates": [ 140.345153954000011, -37.594885806999969 ] } },
{ "type": "Feature", "properties": { "site_type": "SC", "site_no": "285", "site_desc": "George Street \/E of Angelina Drive, Paradise, Paradise Primary", "road_no": null, "rrd_ul": null, "rrd_r": null, "suburb": null, "school_name": null, "resp": "LGA" }, "geometry": { "type": "Point", "coordinates": [ 138.684955413000012, -34.869187895999971 ] } },
{ "type": "Feature", "properties": { "site_type": "SC", "site_no": "261", "site_desc": "Wehl Street \/N of Fartch Street, Mount Gambier, North Gambier Primary", "road_no": null, "rrd_ul": null, "rrd_r": null, "suburb": null, "school_name": null, "resp": "LGA" }, "geometry": { "type": "Point", "coordinates": [ 140.778863268, -37.817703251999944 ] } },
{ "type": "Feature", "properties": { "site_type": "SC", "site_no": "108", "site_desc": "Wehl Street \/N of Shepherdson Road, Mount Gambier, Reidy Park Primary", "road_no": null, "rrd_ul": null, "rrd_r": null, "suburb": null, "school_name": null, "resp": "LGA" }, "geometry": { "type": "Point", "coordinates": [ 140.771900265000113, -37.831446550999942 ] } },
{ "type": "Feature", "properties": { "site_type": "SC", "site_no": "341", "site_desc": "Onkaparinga Valley Rd\/130m S of Sandow Rd, Verdun, The Hills Christian Cmnty PS", "road_no": null, "rrd_ul": null, "rrd_r": null, "suburb": null, "school_name": null, "resp": "SAG" }, "geometry": { "type": "Point", "coordinates": [ 138.786532076000071, -35.010124435999955 ] } },
{ "type": "Feature", "properties": { "site_type": "SC", "site_no": "387", "site_desc": "80m N of Gardiner, Goolwa, Goolwa Primary School", "road_no": null, "rrd_ul": null, "rrd_r": null, "suburb": null, "school_name": null, "resp": "SAG" }, "geometry": { "type": "Point", "coordinates": [ 138.779784947000053, -35.498315970999954 ] } },
{ "type": "Feature", "properties": { "site_type": "SC", "site_no": "269", "site_desc": "Strathalbyn Road \/S of Fairview Road, Aldgate, Aldgate Primary", "road_no": null, "rrd_ul": null, "rrd_r": null, "suburb": null, "school_name": null, "resp": "SAG" }, "geometry": { "type": "Point", "coordinates": [ 138.750270054000111, -35.018476948999933 ] } },
{ "type": "Feature", "properties": { "site_type": "SC", "site_no": "394", "site_desc": "Marmion Rd \/ 57m West of Easmon Lane, Blair Athol, Gepps Cross Primary School", "road_no": null, "rrd_ul": null, "rrd_r": null, "suburb": null, "school_name": null, "resp": "LGA" }, "geometry": { "type": "Point", "coordinates": [ 138.599219930000118, -34.85238303899996 ] } },
{ "type": "Feature", "properties": { "site_type": "SC", "site_no": "338", "site_desc": "Koonga Ave\/58m E of Bonvue Rd, Rostrevor, Stradbroke Primary School", "road_no": null, "rrd_ul": null, "rrd_r": null, "suburb": null, "school_name": null, "resp": "LGA" }, "geometry": { "type": "Point", "coordinates": [ 138.684631282000055, -34.894322914999975 ] } },
{ "type": "Feature", "properties": { "site_type": "SC", "site_no": "322", "site_desc": "Sunnybrook Drive \/NE of Medlands Close, Wynn Vale, Sunnybrook Campus Primary", "road_no": null, "rrd_ul": null, "rrd_r": null, "suburb": null, "school_name": null, "resp": "LGA" }, "geometry": { "type": "Point", "coordinates": [ 138.688555239000038, -34.800269757999956 ] } },
{ "type": "Feature", "properties": { "site_type": "SC", "site_no": "303", "site_desc": "Yorktown Road \/NE of Ifould Road, Elizabeth Park, St Thomas Mores Parish", "road_no": null, "rrd_ul": null, "rrd_r": null, "suburb": null, "school_name": null, "resp": "SAG" }, "geometry": { "type": "Point", "coordinates": [ 138.681189058000086, -34.715340082999944 ] } },
{ "type": "Feature", "properties": { "site_type": "SC", "site_no": "206", "site_desc": "Torrens Road \/NW of Pennington Terrace, Pennington, Mount Carmel Primary", "road_no": null, "rrd_ul": null, "rrd_r": null, "suburb": null, "school_name": null, "resp": "LGA" }, "geometry": { "type": "Point", "coordinates": [ 138.5243696120001, -34.860616697999944 ] } },
{ "type": "Feature", "properties": { "site_type": "SC", "site_no": "305", "site_desc": "Murrays Hill Road \/SE of Lyric Place, Flagstaff Hill, Craigburn Primary", "road_no": null, "rrd_ul": null, "rrd_r": null, "suburb": null, "school_name": null, "resp": "LGA" }, "geometry": { "type": "Point", "coordinates": [ 138.616668985000047, -35.056255656999951 ] } },
{ "type": "Feature", "properties": { "site_type": "SC", "site_no": "241", "site_desc": "Norrie Avenue \/N of St John Crescent, Whyalla, Nicholson Avenue Primary", "road_no": null, "rrd_ul": null, "rrd_r": null, "suburb": null, "school_name": null, "resp": "LGA" }, "geometry": { "type": "Point", "coordinates": [ 137.551366423000104, -33.029270649999944 ] } },
{ "type": "Feature", "properties": { "site_type": "SC", "site_no": "241", "site_desc": "Norrie Avenue \/N of St John Crescent, Whyalla, Nicholson Avenue Primary", "road_no": null, "rrd_ul": null, "rrd_r": null, "suburb": null, "school_name": null, "resp": "LGA" }, "geometry": { "type": "Point", "coordinates": [ 137.551124365000078, -33.029322715999967 ] } },
{ "type": "Feature", "properties": { "site_type": "SC", "site_no": "347", "site_desc": "Main Nth Rd\/100m N of St Vincents Rd, Watervale, Watervale Primary School", "road_no": null, "rrd_ul": null, "rrd_r": null, "suburb": null, "school_name": null, "resp": "SAG" }, "geometry": { "type": "Point", "coordinates": [ 138.645115494000038, -33.959728169999948 ] } },
{ "type": "Feature", "properties": { "site_type": "SC", "site_no": "359", "site_desc": "Thiele Hwy\/240 m W of Reserve Rd, Eudunda, Eudunda Area School", "road_no": null, "rrd_ul": null, "rrd_r": null, "suburb": null, "school_name": null, "resp": "SAG" }, "geometry": { "type": "Point", "coordinates": [ 139.088229698000077, -34.178259917999981 ] } },
{ "type": "Feature", "properties": { "site_type": "SC", "site_no": "215", "site_desc": "Galloway Road \/NW of Roopena Street, O'Sullivan Beach, O'Sullivan Beach Primary", "road_no": null, "rrd_ul": null, "rrd_r": null, "suburb": null, "school_name": null, "resp": "LGA" }, "geometry": { "type": "Point", "coordinates": [ 138.479857399000025, -35.124822699999982 ] } },
{ "type": "Feature", "properties": { "site_type": "SC", "site_no": "298", "site_desc": "Highgate Street \/N of Church Street, Highgate, Highgate Primary", "road_no": null, "rrd_ul": null, "rrd_r": null, "suburb": null, "school_name": null, "resp": "LGA" }, "geometry": { "type": "Point", "coordinates": [ 138.621752784000023, -34.963436976999958 ] } },
{ "type": "Feature", "properties": { "site_type": "SC", "site_no": "277", "site_desc": "Bradford Street \/S of Lockhart Street, Whyalla, Memorial Oval Primary", "road_no": null, "rrd_ul": null, "rrd_r": null, "suburb": null, "school_name": null, "resp": "LGA" }, "geometry": { "type": "Point", "coordinates": [ 137.567646823000018, -33.034032042999968 ] } },
{ "type": "Feature", "properties": { "site_type": "SC", "site_no": "314", "site_desc": "Wattle Street \/E of Unley Road, Malvern, Unley Primary", "road_no": null, "rrd_ul": null, "rrd_r": null, "suburb": null, "school_name": null, "resp": "LGA" }, "geometry": { "type": "Point", "coordinates": [ 138.609716555000091, -34.95465954499997 ] } },
{ "type": "Feature", "properties": { "site_type": "SC", "site_no": "222", "site_desc": "Jenkins Avenue \/W of Henshelwood Street, Whyalla, Hincks Avenue Primary\/Infant", "road_no": null, "rrd_ul": null, "rrd_r": null, "suburb": null, "school_name": null, "resp": "LGA" }, "geometry": { "type": "Point", "coordinates": [ 137.545065334000014, -33.016366256999959 ] } },
{ "type": "Feature", "properties": { "site_type": "SC", "site_no": "222", "site_desc": "Jenkins Avenue \/W of Henshelwood Street, Whyalla, Hincks Avenue Primary\/Infant", "road_no": null, "rrd_ul": null, "rrd_r": null, "suburb": null, "school_name": null, "resp": "LGA" }, "geometry": { "type": "Point", "coordinates": [ 137.544992062000119, -33.016512149999983 ] } },
{ "type": "Feature", "properties": { "site_type": "SC", "site_no": "190", "site_desc": "Nicholson Avenue \/E of Stead Street, Whyalla, Nicholson Avenue Primary", "road_no": null, "rrd_ul": null, "rrd_r": null, "suburb": null, "school_name": null, "resp": "LGA" }, "geometry": { "type": "Point", "coordinates": [ 137.549805335000087, -33.028177982999978 ] } },
{ "type": "Feature", "properties": { "site_type": "SC", "site_no": "190", "site_desc": "Nicholson Avenue \/E of Stead Street, Whyalla, Nicholson Avenue Primary", "road_no": null, "rrd_ul": null, "rrd_r": null, "suburb": null, "school_name": null, "resp": "LGA" }, "geometry": { "type": "Point", "coordinates": [ 137.549798978000013, -33.028069071999937 ] } },
{ "type": "Feature", "properties": { "site_type": "SC", "site_no": "361", "site_desc": "Port Rd\/30 W of King William St, Auburn, Auburn Primary School", "road_no": null, "rrd_ul": null, "rrd_r": null, "suburb": null, "school_name": null, "resp": "SAG" }, "geometry": { "type": "Point", "coordinates": [ 138.681397737000111, -34.028043222999941 ] } },
{ "type": "Feature", "properties": { "site_type": "SC", "site_no": "378", "site_desc": "Strathalbyn Rd\/60m S of Stock Rd, Mylor, Mylor Primary School", "road_no": null, "rrd_ul": null, "rrd_r": null, "suburb": null, "school_name": null, "resp": "SAG" }, "geometry": { "type": "Point", "coordinates": [ 138.760661494000033, -35.040892783999936 ] } },
{ "type": "Feature", "properties": { "site_type": "SC", "site_no": "307", "site_desc": "May Crescent \/W of Bayview Crescent, Ceduna, Ceduna Area", "road_no": null, "rrd_ul": null, "rrd_r": null, "suburb": null, "school_name": null, "resp": "LGA" }, "geometry": { "type": "Point", "coordinates": [ 133.671608348000063, -32.136695693999968 ] } },
{ "type": "Feature", "properties": { "site_type": "SC", "site_no": "254", "site_desc": "Parsons Road \/N of Tristania Terrace, Dernancourt, Dernancourt Primary", "road_no": null, "rrd_ul": null, "rrd_r": null, "suburb": null, "school_name": null, "resp": "LGA" }, "geometry": { "type": "Point", "coordinates": [ 138.671127053000077, -34.861520679999956 ] } },
{ "type": "Feature", "properties": { "site_type": "SC", "site_no": "335", "site_desc": "Windsor Grove \/near Hillburn Avenue, Windsor Gardens, St Pius X Primary", "road_no": null, "rrd_ul": null, "rrd_r": null, "suburb": null, "school_name": null, "resp": "LGA" }, "geometry": { "type": "Point", "coordinates": [ 138.642633284000112, -34.868954694999957 ] } },
{ "type": "Feature", "properties": { "site_type": "SC", "site_no": "004", "site_desc": "James Street \/E of Sycamore Terrace, Campbelltown, East Marden Primary", "road_no": null, "rrd_ul": null, "rrd_r": null, "suburb": null, "school_name": null, "resp": "LGA" }, "geometry": { "type": "Point", "coordinates": [ 138.652465665000022, -34.882862547999935 ] } },
{ "type": "Feature", "properties": { "site_type": "SC", "site_no": "324", "site_desc": "Shepherds Lane \/S of Mines Road, Campbelltown, East Marden Primary", "road_no": null, "rrd_ul": null, "rrd_r": null, "suburb": null, "school_name": null, "resp": "LGA" }, "geometry": { "type": "Point", "coordinates": [ 138.65480948600009, -34.882117790999985 ] } },
{ "type": "Feature", "properties": { "site_type": "SC", "site_no": "358", "site_desc": "Silver St\/30m N of South Tce, Peterborough, St Josephs Catholic School", "road_no": null, "rrd_ul": null, "rrd_r": null, "suburb": null, "school_name": null, "resp": "SAG" }, "geometry": { "type": "Point", "coordinates": [ 138.840708197000026, -32.976211743999954 ] } },
{ "type": "Feature", "properties": { "site_type": "SC", "site_no": "357", "site_desc": "Wildman St\/73 m S of Hughes St, Wallaroo, Wallaroo Primary School", "road_no": null, "rrd_ul": null, "rrd_r": null, "suburb": null, "school_name": null, "resp": "SAG" }, "geometry": { "type": "Point", "coordinates": [ 137.623533270000053, -33.932510260999948 ] } },
{ "type": "Feature", "properties": { "site_type": "SC", "site_no": "107", "site_desc": "O'Halloran Terrace \/E of Howland Street, Mount Gambier, Reidy Park Primary", "road_no": null, "rrd_ul": null, "rrd_r": null, "suburb": null, "school_name": null, "resp": "LGA" }, "geometry": { "type": "Point", "coordinates": [ 140.772585445000118, -37.834852043999945 ] } },
{ "type": "Feature", "properties": { "site_type": "SC", "site_no": "104", "site_desc": "Boandik Terrace \/E of Bray Street, Mount Gambier, East Gambier Primary", "road_no": null, "rrd_ul": null, "rrd_r": null, "suburb": null, "school_name": null, "resp": "LGA" }, "geometry": { "type": "Point", "coordinates": [ 140.793402989000015, -37.840430495999954 ] } },
{ "type": "Feature", "properties": { "site_type": "SC", "site_no": "238", "site_desc": "Whites Road \/N of Crane Street, Bordertown, Bordertown High", "road_no": null, "rrd_ul": null, "rrd_r": null, "suburb": null, "school_name": null, "resp": "LGA" }, "geometry": { "type": "Point", "coordinates": [ 140.768711576000101, -36.312654091999946 ] } },
{ "type": "Feature", "properties": { "site_type": "SC", "site_no": "351", "site_desc": "Harvey St\/60m N of South Tce, Port Broughton, Port Broughton Primary School", "road_no": null, "rrd_ul": null, "rrd_r": null, "suburb": null, "school_name": null, "resp": "SAG" }, "geometry": { "type": "Point", "coordinates": [ 137.931237362000047, -33.602761783999938 ] } },
{ "type": "Feature", "properties": { "site_type": "SC", "site_no": "327", "site_desc": "Condcord Drive \/W of Burgoyne Drive, Old Reynella, Reynella Primary", "road_no": null, "rrd_ul": null, "rrd_r": null, "suburb": null, "school_name": null, "resp": "LGA" }, "geometry": { "type": "Point", "coordinates": [ 138.537636125000063, -35.099890872999936 ] } },
{ "type": "Feature", "properties": { "site_type": "SC", "site_no": "354", "site_desc": "Quorn Rd \/ west of Oval Rd, Stirling North, Stirling North Kindergarden", "road_no": null, "rrd_ul": null, "rrd_r": null, "suburb": null, "school_name": null, "resp": "SAG" }, "geometry": { "type": "Point", "coordinates": [ 137.838593082000102, -32.517752270999949 ] } },
{ "type": "Feature", "properties": { "site_type": "SC", "site_no": "085", "site_desc": "South Road \/N of Christina Street, Edwardstown, St Anthonys", "road_no": null, "rrd_ul": null, "rrd_r": null, "suburb": null, "school_name": null, "resp": "SAG" }, "geometry": { "type": "Point", "coordinates": [ 138.573176732000093, -34.968379933999984 ] } },
{ "type": "Feature", "properties": { "site_type": "SC", "site_no": "085", "site_desc": "South Road \/N of Christina Street, Edwardstown, St Anthony's", "road_no": null, "rrd_ul": null, "rrd_r": null, "suburb": null, "school_name": null, "resp": "SAG" }, "geometry": { "type": "Point", "coordinates": [ 138.572879878000094, -34.96855403099994 ] } },
{ "type": "Feature", "properties": { "site_type": "SC", "site_no": "074", "site_desc": "Celtic Avenue \/W of Renown Avenue, Clovelly Park, Mitchell Park Primary", "road_no": null, "rrd_ul": null, "rrd_r": null, "suburb": null, "school_name": null, "resp": "LGA" }, "geometry": { "type": "Point", "coordinates": [ 138.566703386000086, -35.000162358999944 ] } },
{ "type": "Feature", "properties": { "site_type": "SC", "site_no": "377", "site_desc": "Kapunda-Morgan Rd\/3om E of Eleventh St, Morgan, Morgan Primary School", "road_no": null, "rrd_ul": null, "rrd_r": null, "suburb": null, "school_name": null, "resp": "SAG" }, "geometry": { "type": "Point", "coordinates": [ 139.670373514000062, -34.030980813999975 ] } },
{ "type": "Feature", "properties": { "site_type": "SC", "site_no": "306", "site_desc": "May Terrace \/N of Lipsett Terrace, Brooklyn Park, Lockleys Primary", "road_no": null, "rrd_ul": null, "rrd_r": null, "suburb": null, "school_name": null, "resp": "LGA" }, "geometry": { "type": "Point", "coordinates": [ 138.534445905000098, -34.930322072999957 ] } },
{ "type": "Feature", "properties": { "site_type": "SC", "site_no": "225", "site_desc": "Hamblynn Road \/NW of Campbell Road, Elizabeth Downs, Elizabeth Downs Primary", "road_no": null, "rrd_ul": null, "rrd_r": null, "suburb": null, "school_name": null, "resp": "LGA" }, "geometry": { "type": "Point", "coordinates": [ 138.691204593000066, -34.699165884999957 ] } },
{ "type": "Feature", "properties": { "site_type": "SC", "site_no": "381", "site_desc": "West Tce\/10m S of Stokes Rd, Quorn, Quorn Area School", "road_no": null, "rrd_ul": null, "rrd_r": null, "suburb": null, "school_name": null, "resp": "SAG" }, "geometry": { "type": "Point", "coordinates": [ 138.037012977000018, -32.347254333999956 ] } },
{ "type": "Feature", "properties": { "site_type": "SC", "site_no": "368", "site_desc": "Riddoch St\/E of Scott St, Penola, Penola Primary School", "road_no": null, "rrd_ul": null, "rrd_r": null, "suburb": null, "school_name": null, "resp": "SAG" }, "geometry": { "type": "Point", "coordinates": [ 140.833763025000053, -37.380614568999931 ] } },
{ "type": "Feature", "properties": { "site_type": "SC", "site_no": "246", "site_desc": "East Parade \/S of Eynesbury Avenue, Kingswood, Mitcham Primary", "road_no": null, "rrd_ul": null, "rrd_r": null, "suburb": null, "school_name": null, "resp": "LGA" }, "geometry": { "type": "Point", "coordinates": [ 138.613741788000084, -34.97259336299993 ] } },
{ "type": "Feature", "properties": { "site_type": "SC", "site_no": "065", "site_desc": "Shannon Street \/E of primary school gate, Birdwood, Birdwood Primary\/Infant", "road_no": null, "rrd_ul": null, "rrd_r": null, "suburb": null, "school_name": null, "resp": "SAG" }, "geometry": { "type": "Point", "coordinates": [ 138.958620311000118, -34.819610464999982 ] } },
{ "type": "Feature", "properties": { "site_type": "SC", "site_no": "301", "site_desc": "Balhannah Road \/W of Church Street, Hahndorf, St Michaels Primary", "road_no": null, "rrd_ul": null, "rrd_r": null, "suburb": null, "school_name": null, "resp": "LGA" }, "geometry": { "type": "Point", "coordinates": [ 138.81163541, -35.0280068499999 ] } },
{ "type": "Feature", "properties": { "site_type": "SC", "site_no": "243", "site_desc": "Ridley Grove \/E of Albion Street, Woodville Gardens, Ridley Grove Primary", "road_no": null, "rrd_ul": null, "rrd_r": null, "suburb": null, "school_name": null, "resp": "LGA" }, "geometry": { "type": "Point", "coordinates": [ 138.550431214000014, -34.864146757999947 ] } },
{ "type": "Feature", "properties": { "site_type": "SC", "site_no": "337", "site_desc": "Golden Grove Rd\/64m W of Laburnum Dr, Greenwith, Greenwith Primary", "road_no": null, "rrd_ul": null, "rrd_r": null, "suburb": null, "school_name": null, "resp": "LGA" }, "geometry": { "type": "Point", "coordinates": [ 138.720441095000069, -34.769139087999974 ] } },
{ "type": "Feature", "properties": { "site_type": "SC", "site_no": "189", "site_desc": "Darling Terrace \/S of Donaldson Terrace, Whyalla, St Theresa's & Whyalla Primary", "road_no": null, "rrd_ul": null, "rrd_r": null, "suburb": null, "school_name": null, "resp": "LGA" }, "geometry": { "type": "Point", "coordinates": [ 137.584398899000121, -33.036364720999984 ] } },
{ "type": "Feature", "properties": { "site_type": "SC", "site_no": "264", "site_desc": "Mitton Avenue \/S of Buckingham Street, Henley Beach, Fulham Gardens Primary", "road_no": null, "rrd_ul": null, "rrd_r": null, "suburb": null, "school_name": null, "resp": "LGA" }, "geometry": { "type": "Point", "coordinates": [ 138.504457014000081, -34.91239313899996 ] } },
{ "type": "Feature", "properties": { "site_type": "SC", "site_no": "270", "site_desc": "Kauri Parade \/S of Pine Avenue, Seacliff, Seacliff Primary", "road_no": null, "rrd_ul": null, "rrd_r": null, "suburb": null, "school_name": null, "resp": "LGA" }, "geometry": { "type": "Point", "coordinates": [ 138.521776253000098, -35.036536517999934 ] } },
{ "type": "Feature", "properties": { "site_type": "SC", "site_no": "375", "site_desc": "Hughes St\/40m W of Stirling St, Wallaroo, Wallaroo Primary School", "road_no": null, "rrd_ul": null, "rrd_r": null, "suburb": null, "school_name": null, "resp": "SAG" }, "geometry": { "type": "Point", "coordinates": [ 137.624862025000084, -33.932316709999952 ] } },
{ "type": "Feature", "properties": { "site_type": "SC", "site_no": "240", "site_desc": "Elizabeth Road \/SE of Peregrine Crescent, Christie Downs, Christie Downs Primary & Speci", "road_no": null, "rrd_ul": null, "rrd_r": null, "suburb": null, "school_name": null, "resp": "LGA" }, "geometry": { "type": "Point", "coordinates": [ 138.49226357900011, -35.132858602999931 ] } },
{ "type": "Feature", "properties": { "site_type": "SC", "site_no": "255", "site_desc": "North Terrace \/NW of Livingstone Street, Mount Gambier, McDonald Park Primary", "road_no": null, "rrd_ul": null, "rrd_r": null, "suburb": null, "school_name": null, "resp": "LGA" }, "geometry": { "type": "Point", "coordinates": [ 140.793644973000028, -37.826826800999982 ] } },
{ "type": "Feature", "properties": { "site_type": "SC", "site_no": "234", "site_desc": "Brownes Road \/E of Thurston Street, Mount Gambier, Mount Gambier High", "road_no": null, "rrd_ul": null, "rrd_r": null, "suburb": null, "school_name": null, "resp": "LGA" }, "geometry": { "type": "Point", "coordinates": [ 140.76757670500001, -37.825607089999949 ] } },
{ "type": "Feature", "properties": { "site_type": "SC", "site_no": "056", "site_desc": "Fairfield Road \/SW of Burgate Street, Elizabeth Grove, Elizabeth Grove Primary", "road_no": null, "rrd_ul": null, "rrd_r": null, "suburb": null, "school_name": null, "resp": "LGA" }, "geometry": { "type": "Point", "coordinates": [ 138.669669209000062, -34.735359129999949 ] } },
{ "type": "Feature", "properties": { "site_type": "SC", "site_no": "256", "site_desc": "Diment Road \/E of Mannara Drive, Salisbury North, Direk Primary", "road_no": null, "rrd_ul": null, "rrd_r": null, "suburb": null, "school_name": null, "resp": "LGA" }, "geometry": { "type": "Point", "coordinates": [ 138.622377060000076, -34.73749599699994 ] } },
{ "type": "Feature", "properties": { "site_type": "SC", "site_no": "239", "site_desc": "Cottenham Road \/E of Linton Street, Banksia Park, Banksia Park Primary", "road_no": null, "rrd_ul": null, "rrd_r": null, "suburb": null, "school_name": null, "resp": "LGA" }, "geometry": { "type": "Point", "coordinates": [ 138.726557283000034, -34.808192824999935 ] } },
{ "type": "Feature", "properties": { "site_type": "SC", "site_no": "265", "site_desc": "Malbeck Drive \/N of Stoneyhill Street, Reynella East, Reynella East Primary", "road_no": null, "rrd_ul": null, "rrd_r": null, "suburb": null, "school_name": null, "resp": "LGA" }, "geometry": { "type": "Point", "coordinates": [ 138.554627744000072, -35.090980004999949 ] } },
{ "type": "Feature", "properties": { "site_type": "SC", "site_no": "250", "site_desc": "Grant Avenue \/E of Gurney Road, Rose Park, Rose Park Primary", "road_no": null, "rrd_ul": null, "rrd_r": null, "suburb": null, "school_name": null, "resp": "LGA" }, "geometry": { "type": "Point", "coordinates": [ 138.629105816000106, -34.93214463299995 ] } },
{ "type": "Feature", "properties": { "site_type": "SC", "site_no": "247", "site_desc": "Jenkins Avenue \/W of Pattinson Close, Whyalla, Fisk Street Primary", "road_no": null, "rrd_ul": null, "rrd_r": null, "suburb": null, "school_name": null, "resp": "LGA" }, "geometry": { "type": "Point", "coordinates": [ 137.533822538000095, -33.015067276999957 ] } },
{ "type": "Feature", "properties": { "site_type": "SC", "site_no": "332", "site_desc": "Kensington Way \/40m NE of Bond Crescent, Burton, Burton Primary", "road_no": null, "rrd_ul": null, "rrd_r": null, "suburb": null, "school_name": null, "resp": "LGA" }, "geometry": { "type": "Point", "coordinates": [ 138.598282095000059, -34.741958774999944 ] } },
{ "type": "Feature", "properties": { "site_type": "SC", "site_no": "293", "site_desc": "Goddard Drive \/NW of Carlingford Drive, Salisbury Park, Salisbury Park Primary", "road_no": null, "rrd_ul": null, "rrd_r": null, "suburb": null, "school_name": null, "resp": "LGA" }, "geometry": { "type": "Point", "coordinates": [ 138.669169471000032, -34.760717866999983 ] } },
{ "type": "Feature", "properties": { "site_type": "SC", "site_no": "247", "site_desc": "Jenkins Avenue \/W of Pattinson Close, Whyalla, Fisk Street Primary", "road_no": null, "rrd_ul": null, "rrd_r": null, "suburb": null, "school_name": null, "resp": "LGA" }, "geometry": { "type": "Point", "coordinates": [ 137.533809622000035, -33.014911711999957 ] } },
{ "type": "Feature", "properties": { "site_type": "SC", "site_no": "274", "site_desc": "Renown Avenue \/N of Australian Avenue, Clovelly Park, Mitchell Park Primary", "road_no": null, "rrd_ul": null, "rrd_r": null, "suburb": null, "school_name": null, "resp": "LGA" }, "geometry": { "type": "Point", "coordinates": [ 138.566968087000078, -34.999040241999978 ] } },
{ "type": "Feature", "properties": { "site_type": "SC", "site_no": "383", "site_desc": "Conyngham St\/40m N of Avenue Rd, Glenunga, Glenunga Intnl High School", "road_no": null, "rrd_ul": null, "rrd_r": null, "suburb": null, "school_name": null, "resp": "LGA" }, "geometry": { "type": "Point", "coordinates": [ 138.63440193100007, -34.949885579999943 ] } },
{ "type": "Feature", "properties": { "site_type": "SC", "site_no": "220", "site_desc": "Adelaide Place \/S of Lincoln Place, Port Lincoln, Port Lincoln Primary", "road_no": null, "rrd_ul": null, "rrd_r": null, "suburb": null, "school_name": null, "resp": "LGA" }, "geometry": { "type": "Point", "coordinates": [ 135.856438275000073, -34.723275550999972 ] } },
{ "type": "Feature", "properties": { "site_type": "SC", "site_no": "362", "site_desc": "Adelaide-Mannum Rd\/200m W of Victoria St, Gumeracha, Gumeracha Primary School", "road_no": null, "rrd_ul": null, "rrd_r": null, "suburb": null, "school_name": null, "resp": "SAG" }, "geometry": { "type": "Point", "coordinates": [ 138.880950048000045, -34.825453507999953 ] } },
{ "type": "Feature", "properties": { "site_type": "SC", "site_no": "323", "site_desc": "Daphne Road \/N of Welby Avenue, Salisbury East, Madison Park Primary", "road_no": null, "rrd_ul": null, "rrd_r": null, "suburb": null, "school_name": null, "resp": "LGA" }, "geometry": { "type": "Point", "coordinates": [ 138.660769662000121, -34.783641494999983 ] } },
{ "type": "Feature", "properties": { "site_type": "SC", "site_no": "320", "site_desc": "Newcastle Street \/E of Dundas Street, Rosewater, Mount Carmel College", "road_no": null, "rrd_ul": null, "rrd_r": null, "suburb": null, "school_name": null, "resp": "LGA" }, "geometry": { "type": "Point", "coordinates": [ 138.522439184000064, -34.856020845999979 ] } },
{ "type": "Feature", "properties": { "site_type": "SC", "site_no": "300", "site_desc": "Sandison Road \/N of Gledsdale Road, Hallett Cove, Hallett Cove Primary", "road_no": null, "rrd_ul": null, "rrd_r": null, "suburb": null, "school_name": null, "resp": "LGA" }, "geometry": { "type": "Point", "coordinates": [ 138.509679931000051, -35.076841419999937 ] } },
{ "type": "Feature", "properties": { "site_type": "SC", "site_no": "379", "site_desc": "Ramco Rd\/450m W of Ramco Pt Rd, Ramco, Ramco School", "road_no": null, "rrd_ul": null, "rrd_r": null, "suburb": null, "school_name": null, "resp": "SAG" }, "geometry": { "type": "Point", "coordinates": [ 139.932520839000063, -34.170272068999964 ] } },
{ "type": "Feature", "properties": { "site_type": "SC", "site_no": "413", "site_desc": "Jenkins Rd - Cowandilla Primary School", "road_no": null, "rrd_ul": null, "rrd_r": null, "suburb": null, "school_name": null, "resp": "LGA" }, "geometry": { "type": "Point", "coordinates": [ 138.56027572000005, -34.933731394999938 ] } },
{ "type": "Feature", "properties": { "site_type": "SC", "site_no": "403", "site_desc": "Bicentennial Dr - Approx. 225m NE of Botany Dr, Golden Grove Primary School", "road_no": null, "rrd_ul": null, "rrd_r": null, "suburb": null, "school_name": null, "resp": "LGA" }, "geometry": { "type": "Point", "coordinates": [ 138.710406190000072, -34.786617562999936 ] } },
{ "type": "Feature", "properties": { "site_type": "SC", "site_no": "400", "site_desc": "Highgate St - 41m N of Winchester St", "road_no": null, "rrd_ul": null, "rrd_r": null, "suburb": null, "school_name": null, "resp": "LGA" }, "geometry": { "type": "Point", "coordinates": [ 138.621201244000076, -34.959760102999951 ] } },
{ "type": "Feature", "properties": { "site_type": "SC", "site_no": "227", "site_desc": "South Terrace \/E of Park Terrace, Bordertown, Bordertown Primary", "road_no": null, "rrd_ul": null, "rrd_r": null, "suburb": null, "school_name": null, "resp": "LGA" }, "geometry": { "type": "Point", "coordinates": [ 140.765877012000033, -36.31278217199997 ] } },
{ "type": "Feature", "properties": { "site_type": "SC", "site_no": "345", "site_desc": "Hart Rd\/38m E of Freer St, Semaphore South, Le Fevre High School", "road_no": null, "rrd_ul": null, "rrd_r": null, "suburb": null, "school_name": null, "resp": "SAG" }, "geometry": { "type": "Point", "coordinates": [ 138.485500087000105, -34.845055540999965 ] } },
{ "type": "Feature", "properties": { "site_type": "SC", "site_no": "412", "site_desc": "Aldinga Beach Rd, Aldinga Beach, Southern Vales Christian Community School", "road_no": null, "rrd_ul": null, "rrd_r": null, "suburb": null, "school_name": null, "resp": "SAG" }, "geometry": { "type": "Point", "coordinates": [ 138.468192490000092, -35.278581920999954 ] } },
{ "type": "Feature", "properties": { "site_type": "SC", "site_no": "407", "site_desc": "Fosters Rd, Cedar College at Northgate", "road_no": null, "rrd_ul": null, "rrd_r": null, "suburb": null, "school_name": null, "resp": "SAG" }, "geometry": { "type": "Point", "coordinates": [ 138.635935424000081, -34.855125254999962 ] } },
{ "type": "Feature", "properties": { "site_type": "SC", "site_no": "062", "site_desc": "Woodford Road \/S of Broxmore Street, Elizabeth North, Elizabeth North Primary", "road_no": null, "rrd_ul": null, "rrd_r": null, "suburb": null, "school_name": null, "resp": "LGA" }, "geometry": { "type": "Point", "coordinates": [ 138.675004408000063, -34.704047274999937 ] } },
{ "type": "Feature", "properties": { "site_type": "SC", "site_no": "418", "site_desc": "Corckerton Rd, Playford International College", "road_no": null, "rrd_ul": null, "rrd_r": null, "suburb": null, "school_name": null, "resp": "LGA" }, "geometry": { "type": "Point", "coordinates": [ 138.667027326000039, -34.722743893999962 ] } },
{ "type": "Feature", "properties": { "site_type": "SC", "site_no": "313", "site_desc": "Gilles Road \/E of Bagot Street, Glen Osmond, Seymour Senior College", "road_no": null, "rrd_ul": null, "rrd_r": null, "suburb": null, "school_name": null, "resp": "LGA" }, "geometry": { "type": "Point", "coordinates": [ 138.650029100000097, -34.957205285999976 ] } },
{ "type": "Feature", "properties": { "site_type": "SC", "site_no": "425", "site_desc": "Barassi St approx 200m north of Ronaldo Way, Settlers Farm Campus Primary School", "road_no": null, "rrd_ul": null, "rrd_r": null, "suburb": null, "school_name": null, "resp": "LGA" }, "geometry": { "type": "Point", "coordinates": [ 138.594519127000012, -34.756127721999974 ] } },
{ "type": "Feature", "properties": { "site_type": "SC", "site_no": "229", "site_desc": "Mead Street \/S of Shorney Street, Birkenhead, Le Fevre Primary", "road_no": null, "rrd_ul": null, "rrd_r": null, "suburb": null, "school_name": null, "resp": "LGA" }, "geometry": { "type": "Point", "coordinates": [ 138.494032500000117, -34.840119251999965 ] } },
{ "type": "Feature", "properties": { "site_type": "SC", "site_no": "005", "site_desc": "Hay Street \/60m W of Burnell Street, Linden Park, Linden Park Primary", "road_no": null, "rrd_ul": null, "rrd_r": null, "suburb": null, "school_name": null, "resp": "LGA" }, "geometry": { "type": "Point", "coordinates": [ 138.646829289000038, -34.947181684999975 ] } },
{ "type": "Feature", "properties": { "site_type": "SC", "site_no": "350", "site_desc": "Upper Sturt Rd\/20m W of Fernwood Way\/eastern access, Upper Sturt, Upper Sturt Primary", "road_no": null, "rrd_ul": null, "rrd_r": null, "suburb": null, "school_name": null, "resp": "SAG" }, "geometry": { "type": "Point", "coordinates": [ 138.685375720000025, -35.019294264999928 ] } },
{ "type": "Feature", "properties": { "site_type": "SC", "site_no": "334", "site_desc": "Botany Drive \/N of Bicentennial Drive, Golden Grove, Golden Grove Primary", "road_no": null, "rrd_ul": null, "rrd_r": null, "suburb": null, "school_name": null, "resp": "LGA" }, "geometry": { "type": "Point", "coordinates": [ 138.707910788000049, -34.786864882999964 ] } },
{ "type": "Feature", "properties": { "site_type": "SC", "site_no": "312", "site_desc": "Gilles Road \/W of Pridmore Street, Glen Osmond, Seymour Junior College", "road_no": null, "rrd_ul": null, "rrd_r": null, "suburb": null, "school_name": null, "resp": "LGA" }, "geometry": { "type": "Point", "coordinates": [ 138.645626679000088, -34.95745306799995 ] } },
{ "type": "Feature", "properties": { "site_type": "SC", "site_no": "353", "site_desc": "Main Rd\/300m N Station Rd, Willunga, Willunga High School", "road_no": null, "rrd_ul": null, "rrd_r": null, "suburb": null, "school_name": null, "resp": "SAG" }, "geometry": { "type": "Point", "coordinates": [ 138.553827457000011, -35.266196322999974 ] } },
{ "type": "Feature", "properties": { "site_type": "SC", "site_no": "370", "site_desc": "Mt Burr Rd \/ East of Princes Hwy, Millicent, Millicent High School", "road_no": null, "rrd_ul": null, "rrd_r": null, "suburb": null, "school_name": null, "resp": "SAG" }, "geometry": { "type": "Point", "coordinates": [ 140.355488889000071, -37.590973550999934 ] } },
{ "type": "Feature", "properties": { "site_type": "SC", "site_no": "372", "site_desc": "Flinders Hwy\/450m W of Beach Tce, Elliston, Elliston Area School", "road_no": null, "rrd_ul": null, "rrd_r": null, "suburb": null, "school_name": null, "resp": "SAG" }, "geometry": { "type": "Point", "coordinates": [ 134.891285793000065, -33.644610928999953 ] } },
{ "type": "Feature", "properties": { "site_type": "SC", "site_no": "428", "site_desc": "Echunga Rd \/140m N of Aldgate-Strathalbyn Rd, Echunga, Echunga Primary School", "road_no": null, "rrd_ul": null, "rrd_r": null, "suburb": null, "school_name": null, "resp": "SAG" }, "geometry": { "type": "Point", "coordinates": [ 138.791894753000065, -35.097588962999964 ] } },
{ "type": "Feature", "properties": { "site_type": "SC", "site_no": "420", "site_desc": "Queen St North of William St, St Ignatius College Junior Primary", "road_no": null, "rrd_ul": null, "rrd_r": null, "suburb": null, "school_name": null, "resp": "LGA" }, "geometry": { "type": "Point", "coordinates": [ 138.638939963000098, -34.922991595999974 ] } },
{ "type": "Feature", "properties": { "site_type": "SC", "site_no": "374", "site_desc": "Riddoch Hwy\/115m S of Bryan St, Allendale East, Allendale East Primary School", "road_no": null, "rrd_ul": null, "rrd_r": null, "suburb": null, "school_name": null, "resp": "SAG" }, "geometry": { "type": "Point", "coordinates": [ 140.709355475000052, -38.002940377999948 ] } },
{ "type": "Feature", "properties": { "site_type": "SC", "site_no": "422", "site_desc": "Young St near Castle St for Parkside Primary School", "road_no": null, "rrd_ul": null, "rrd_r": null, "suburb": null, "school_name": null, "resp": "LGA" }, "geometry": { "type": "Point", "coordinates": [ 138.618927491000022, -34.943934823999939 ] } },
{ "type": "Feature", "properties": { "site_type": "SC", "site_no": "423", "site_desc": "Robsart St near Castle St for Parkside Primary School", "road_no": null, "rrd_ul": null, "rrd_r": null, "suburb": null, "school_name": null, "resp": "LGA" }, "geometry": { "type": "Point", "coordinates": [ 138.619312318000084, -34.944966608999948 ] } },
{ "type": "Feature", "properties": { "site_type": "SC", "site_no": "367", "site_desc": "Mt Burr Rd\/80m W of Brown St, Mt Burr, Mt Burr Primary School", "road_no": null, "rrd_ul": null, "rrd_r": null, "suburb": null, "school_name": null, "resp": "SAG" }, "geometry": { "type": "Point", "coordinates": [ 140.459119723000072, -37.54202982299995 ] } },
{ "type": "Feature", "properties": { "site_type": "SC", "site_no": "355", "site_desc": "McLaren Vale - Willunga, McLaren Vale, McLaren Vale Primary", "road_no": null, "rrd_ul": null, "rrd_r": null, "suburb": null, "school_name": null, "resp": "SAG" }, "geometry": { "type": "Point", "coordinates": [ 138.532820447000063, -35.211613112999942 ] } },
{ "type": "Feature", "properties": { "site_type": "SC", "site_no": "408", "site_desc": "Main Rd Willinga, Willunga Primary School", "road_no": null, "rrd_ul": null, "rrd_r": null, "suburb": null, "school_name": null, "resp": "SAG" }, "geometry": { "type": "Point", "coordinates": [ 138.554054518000044, -35.269377267999971 ] } },
{ "type": "Feature", "properties": { "site_type": "SC", "site_no": "429", "site_desc": "McLaren Flat Rd\/200m W of Kangarilla Rd, Kangarilla, Kangarilla Primary School", "road_no": null, "rrd_ul": null, "rrd_r": null, "suburb": null, "school_name": null, "resp": "SAG" }, "geometry": { "type": "Point", "coordinates": [ 138.659382516000051, -35.148500859999956 ] } },
{ "type": "Feature", "properties": { "site_type": "SC", "site_no": "435", "site_desc": "St Josephs Memorial school on William St", "road_no": null, "rrd_ul": null, "rrd_r": null, "suburb": null, "school_name": null, "resp": "LGA" }, "geometry": { "type": "Point", "coordinates": [ 138.64063103, -34.923997731999975 ] } },
{ "type": "Feature", "properties": { "site_type": "SC", "site_no": "376", "site_desc": "Miller St \/22M North of William St, Springton, Springton Primary School", "road_no": null, "rrd_ul": null, "rrd_r": null, "suburb": null, "school_name": null, "resp": "SAG" }, "geometry": { "type": "Point", "coordinates": [ 139.089347893000081, -34.707174490999932 ] } },
{ "type": "Feature", "properties": { "site_type": "SC", "site_no": "427", "site_desc": "Mawson Rd (Meadows Primary School)", "road_no": null, "rrd_ul": null, "rrd_r": null, "suburb": null, "school_name": null, "resp": "SAG" }, "geometry": { "type": "Point", "coordinates": [ 138.761518619000071, -35.181103371999939 ] } },
{ "type": "Feature", "properties": { "site_type": "SC", "site_no": "316", "site_desc": "Kohinoor Road \/W of Centenary Avenue, Kingscote, Kingscote Area", "road_no": null, "rrd_ul": null, "rrd_r": null, "suburb": null, "school_name": null, "resp": "SAG" }, "geometry": { "type": "Point", "coordinates": [ 137.633922637000069, -35.652944031999937 ] } },
{ "type": "Feature", "properties": { "site_type": "SC", "site_no": "287", "site_desc": "Barretts Road \/W of Mortlock Street, Clapham, Clapham Primary", "road_no": null, "rrd_ul": null, "rrd_r": null, "suburb": null, "school_name": null, "resp": "LGA" }, "geometry": { "type": "Point", "coordinates": [ 138.604035845000112, -34.994064332999983 ] } },
{ "type": "Feature", "properties": { "site_type": "SC", "site_no": "424", "site_desc": "Ronaldo Way for Setlers Farm Campus Pmy Sch", "road_no": null, "rrd_ul": null, "rrd_r": null, "suburb": null, "school_name": null, "resp": "LGA" }, "geometry": { "type": "Point", "coordinates": [ 138.595888373000093, -34.7576646699999 ] } },
{ "type": "Feature", "properties": { "site_type": "SC", "site_no": "263", "site_desc": "Marlborough Street \/E of Northey Street, Henley Beach, Fulham Gardens Primary", "road_no": null, "rrd_ul": null, "rrd_r": null, "suburb": null, "school_name": null, "resp": "LGA" }, "geometry": { "type": "Point", "coordinates": [ 138.503324564000081, -34.913435866999976 ] } },
{ "type": "Feature", "properties": { "site_type": "SC", "site_no": "437", "site_desc": "Hemming St for The Pines Primary School", "road_no": null, "rrd_ul": null, "rrd_r": null, "suburb": null, "school_name": null, "resp": "LGA" }, "geometry": { "type": "Point", "coordinates": [ 138.608895742000072, -34.773237627999947 ] } },
{ "type": "Feature", "properties": { "site_type": "SC", "site_no": "438", "site_desc": "Oxford Tce \/ St Joseph's School", "road_no": null, "rrd_ul": null, "rrd_r": null, "suburb": null, "school_name": null, "resp": "LGA" }, "geometry": { "type": "Point", "coordinates": [ 135.853800980000074, -34.727109285999973 ] } },
{ "type": "Feature", "properties": { "site_type": "SC", "site_no": "417", "site_desc": "Kersbrook Rd South of Bowden St, Kersbrook Primary School", "road_no": null, "rrd_ul": null, "rrd_r": null, "suburb": null, "school_name": null, "resp": "SAG" }, "geometry": { "type": "Point", "coordinates": [ 138.850672056, -34.782167733999984 ] } },
{ "type": "Feature", "properties": { "site_type": "SC", "site_no": "436", "site_desc": "Pimpala Rd near Prescott College Southern", "road_no": null, "rrd_ul": null, "rrd_r": null, "suburb": null, "school_name": null, "resp": "LGA" }, "geometry": { "type": "Point", "coordinates": [ 138.543573952000088, -35.104236956999955 ] } },
{ "type": "Feature", "properties": { "site_type": "SC", "site_no": "442", "site_desc": "Jane St \/ South Port Primary", "road_no": null, "rrd_ul": null, "rrd_r": null, "suburb": null, "school_name": null, "resp": "LGA" }, "geometry": { "type": "Point", "coordinates": [ 138.473253704000058, -35.175579599999935 ] } },
{ "type": "Feature", "properties": { "site_type": "SC", "site_no": "440", "site_desc": "Glynville Dr \/ HACKHAM WEST PRIMARY", "road_no": null, "rrd_ul": null, "rrd_r": null, "suburb": null, "school_name": null, "resp": "LGA" }, "geometry": { "type": "Point", "coordinates": [ 138.516835012000115, -35.14310508799997 ] } },
{ "type": "Feature", "properties": { "site_type": "SC", "site_no": "433", "site_desc": "Grand Bvd \/ near Corsar Ct", "road_no": null, "rrd_ul": null, "rrd_r": null, "suburb": null, "school_name": null, "resp": "LGA" }, "geometry": { "type": "Point", "coordinates": [ 138.486991320000016, -35.200312271999962 ] } },
{ "type": "Feature", "properties": { "site_type": "SC", "site_no": "433", "site_desc": "Grand Bvd \/ near Corsar Ct", "road_no": null, "rrd_ul": null, "rrd_r": null, "suburb": null, "school_name": null, "resp": "LGA" }, "geometry": { "type": "Point", "coordinates": [ 138.486901014000068, -35.200348847999976 ] } },
{ "type": "Feature", "properties": { "site_type": "SC", "site_no": "441", "site_desc": "Barwell Rd 70m east of Anstey Crescent", "road_no": null, "rrd_ul": null, "rrd_r": null, "suburb": null, "school_name": null, "resp": "LGA" }, "geometry": { "type": "Point", "coordinates": [ 138.567397883000012, -34.946644319999962 ] } },
{ "type": "Feature", "properties": { "site_type": "SC", "site_no": "443", "site_desc": "Grand Bvd Left Cwy \/ NAME\tAll Saints Catholic Primary School", "road_no": null, "rrd_ul": null, "rrd_r": null, "suburb": null, "school_name": null, "resp": "LGA" }, "geometry": { "type": "Point", "coordinates": [ 138.481114516000048, -35.184346051999967 ] } },
{ "type": "Feature", "properties": { "site_type": "SC", "site_no": "443", "site_desc": "Grand Bvd Left Cwy \/ NAME\tAll Saints Catholic Primary School", "road_no": null, "rrd_ul": null, "rrd_r": null, "suburb": null, "school_name": null, "resp": "LGA" }, "geometry": { "type": "Point", "coordinates": [ 138.481215003000102, -35.184364712999979 ] } },
{ "type": "Feature", "properties": { "site_type": "SC", "site_no": "445", "site_desc": "King George Ave \/ 180m north of King St", "road_no": null, "rrd_ul": null, "rrd_r": null, "suburb": null, "school_name": null, "resp": "LGA" }, "geometry": { "type": "Point", "coordinates": [ 138.518862739000042, -35.011989773999971 ] } },
{ "type": "Feature", "properties": { "site_type": "SC", "site_no": "444", "site_desc": "Errington St for Errington School", "road_no": null, "rrd_ul": null, "rrd_r": null, "suburb": null, "school_name": null, "resp": "LGA" }, "geometry": { "type": "Point", "coordinates": [ 138.547956147000036, -34.962108667999985 ] } },
{ "type": "Feature", "properties": { "site_type": "SC", "site_no": "447", "site_desc": "West Parkway near Windsor Av - Colonel Light Gardens Primary School", "road_no": null, "rrd_ul": null, "rrd_r": null, "suburb": null, "school_name": null, "resp": "LGA" }, "geometry": { "type": "Point", "coordinates": [ 138.594213651000018, -34.986837905999948 ] } },
{ "type": "Feature", "properties": { "site_type": null, "site_no": null, "site_desc": null, "road_no": null, "rrd_ul": null, "rrd_r": null, "suburb": null, "school_name": null, "resp": "OTH" }, "geometry": { "type": "Point", "coordinates": [ 138.674793473000022, -34.896134403999952 ] } },
{ "type": "Feature", "properties": { "site_type": "SC", "site_no": "452", "site_desc": "Galloway Rd \/ Southern Montessori School", "road_no": null, "rrd_ul": null, "rrd_r": null, "suburb": null, "school_name": null, "resp": "LGA" }, "geometry": { "type": "Point", "coordinates": [ 138.478806175000045, -35.124255774999938 ] } },
{ "type": "Feature", "properties": { "site_type": "SC", "site_no": "453", "site_desc": "Audley St near Adit St - Ngutu College", "road_no": null, "rrd_ul": null, "rrd_r": null, "suburb": null, "school_name": null, "resp": "LGA" }, "geometry": { "type": "Point", "coordinates": [ 138.5382166280001, -34.866376844999934 ] } },
{ "type": "Feature", "properties": { "site_type": "SC", "site_no": "002", "site_desc": "George Main Road \/E of Oval Park Drive, Victor Harbor, Glendale Christian", "road_no": null, "rrd_ul": null, "rrd_r": null, "suburb": null, "school_name": null, "resp": "SAG" }, "geometry": { "type": "Point", "coordinates": [ 138.610803514000054, -35.556711830999973 ] } }
]
}
